code,latitude,longitude,name,name_en,names,names_json
AF,33.93911,67.709953,Afghanistan,,"{'hu': 'Afganisztán', 'pl': 'Afganistan', 'ja': 'アフガニスタン', 'es': 'Afganistán', 'pt': 'Afeganistão', 'co': 'Afganistanu', 'eu': 'Afganistan', 'ie': 'An Afganastáin'}","{""co"":""Afganistanu"",""es"":""Afganistán"",""eu"":""Afganistan"",""hu"":""Afganisztán"",""ie"":""An Afganastáin"",""ja"":""アフガニスタン"",""pl"":""Afganistan"",""pt"":""Afeganistão""}"
AL,41.153332,20.168331,Albania,,"{'fr': 'Albanie', 'hu': 'Albánia', 'nl': 'Albanië', 'de': 'Albanien', 'ja': 'アルバニア', 'pt': 'Albânia', 'co': 'Alba', 'ie': 'An Albáin'}","{""co"":""Alba"",""de"":""Albanien"",""fr"":""Albanie"",""hu"":""Albánia"",""ie"":""An Albáin"",""ja"":""アルバニア"",""nl"":""Albanië"",""pt"":""Albânia""}"
DZ,28.033886,1.659626,Algeria,,"{'fr': 'Algérie', 'hu': 'Algéria', 'nl': 'Algerije', 'pl': 'Algieria', 'de': 'Algerien', 'ja': 'アルジェリア', 'es': 'Argelia', 'pt': 'Argélia', 'ie': 'An Ailgéir'}","{""de"":""Algerien"",""es"":""Argelia"",""fr"":""Algérie"",""hu"":""Algéria"",""ie"":""An Ailgéir"",""ja"":""アルジェリア"",""nl"":""Algerije"",""pl"":""Algieria"",""pt"":""Argélia""}"
AS,-14.270972,-170.132217,American Samoa,,"{'fr': 'Samoa américaines', 'hu': 'Amerikai Szamoa', 'nl': 'Amerikaans-Samoa', 'pl': 'Samoa Amerykańskie', 'de': 'Amerikanisch-Samoa', 'ja': 'アメリカンサモア', 'co': 'Samoa Americana', 'es': 'Samoa Americana', 'pt': 'Samoa Americana', 'eu': 'Amerikar Samoa', 'ie': 'Samó na Meiriceá'}","{""co"":""Samoa Americana"",""de"":""Amerikanisch-Samoa"",""es"":""Samoa Americana"",""eu"":""Amerikar Samoa"",""fr"":""Samoa américaines"",""hu"":""Amerikai Szamoa"",""ie"":""Samó na Meiriceá"",""ja"":""アメリカンサモア"",""nl"":""Amerikaans-Samoa"",""pl"":""Samoa Amerykańskie"",""pt"":""Samoa Americana""}"
AD,42.546245,1.601554,Andorra,,"{'fr': 'Andorre', 'pl': 'Andora', 'ja': 'アンドラ', 'co': 'Andura', 'ie': 'Andóra'}","{""co"":""Andura"",""fr"":""Andorre"",""ie"":""Andóra"",""ja"":""アンドラ"",""pl"":""Andora""}"
AO,-11.202692,17.873887,Angola,,"{'ja': 'アンゴラ', 'ie': 'Angóla'}","{""ie"":""Angóla"",""ja"":""アンゴラ""}"
AI,18.220554,-63.068615,Anguilla,,"{'ja': 'アンギラ', 'es': 'Anguila', 'eu': 'Aingira', 'ie': 'Anguilla'}","{""es"":""Anguila"",""eu"":""Aingira"",""ie"":""Anguilla"",""ja"":""アンギラ""}"
AQ,-75.250973,-0.071389,Antarctica,,"{'fr': 'Antarctique', 'hu': 'Antarktisz', 'pl': 'Antarktyda', 'de': 'Antarktika', 'ja': '南極', 'co': 'Antartica', 'es': 'Antártida', 'pt': 'Antártida', 'eu': 'Antartika', 'ie': 'An Antartach'}","{""co"":""Antartica"",""de"":""Antarktika"",""es"":""Antártida"",""eu"":""Antartika"",""fr"":""Antarctique"",""hu"":""Antarktisz"",""ie"":""An Antartach"",""ja"":""南極"",""pl"":""Antarktyda"",""pt"":""Antártida""}"
AG,17.060816,-61.796428,Antigua and Barbuda,,"{'fr': 'Antigua-et-Barbuda', 'hu': 'Antigua és Barbuda', 'nl': 'Antigua en Barbuda', 'pl': 'Antigua i Barbuda', 'de': 'Antigua und Barbuda', 'ja': 'アンティグア・バーブーダ', 'co': 'Antigua è Barbuda', 'es': 'Antigua y Barbuda', 'pt': 'Antígua e Barbuda', 'eu': 'Antigua eta Barbuda', 'ie': 'Antigua agus Barbúda'}","{""co"":""Antigua è Barbuda"",""de"":""Antigua und Barbuda"",""es"":""Antigua y Barbuda"",""eu"":""Antigua eta Barbuda"",""fr"":""Antigua-et-Barbuda"",""hu"":""Antigua és Barbuda"",""ie"":""Antigua agus Barbúda"",""ja"":""アンティグア・バーブーダ"",""nl"":""Antigua en Barbuda"",""pl"":""Antigua i Barbuda"",""pt"":""Antígua e Barbuda""}"
AR,-38.416097,-63.616672,Argentina,,"{'fr': 'Argentine', 'hu': 'Argentína', 'nl': 'Argentinië', 'pl': 'Argentyna', 'de': 'Argentinien', 'ja': 'アルゼンチン', 'ie': 'An Airgintín'}","{""de"":""Argentinien"",""fr"":""Argentine"",""hu"":""Argentína"",""ie"":""An Airgintín"",""ja"":""アルゼンチン"",""nl"":""Argentinië"",""pl"":""Argentyna""}"
AM,40.069099,45.038189,Armenia,,"{'fr': 'Arménie', 'hu': 'Örményország', 'nl': 'Armenië', 'de': 'Armenien', 'ja': 'アルメニア', 'pt': 'Armênia', 'ie': 'An Airméin'}","{""de"":""Armenien"",""fr"":""Arménie"",""hu"":""Örményország"",""ie"":""An Airméin"",""ja"":""アルメニア"",""nl"":""Armenië"",""pt"":""Armênia""}"
AW,12.52111,-69.968338,Aruba,,"{'fr': 'Aruba', 'es': 'Aruba', 'eu': 'Aruba', 'hu': 'Aruba', 'nl': 'Aruba', 'pl': 'Aruba', 'pt': 'Aruba', 'de': 'Aruba', 'ja': 'アルバ', 'co': 'Aruba', 'ie': 'Arúba'}","{""co"":""Aruba"",""de"":""Aruba"",""es"":""Aruba"",""eu"":""Aruba"",""fr"":""Aruba"",""hu"":""Aruba"",""ie"":""Arúba"",""ja"":""アルバ"",""nl"":""Aruba"",""pl"":""Aruba"",""pt"":""Aruba""}"
AU,-25.274398,133.775136,Australia,,"{'fr': 'Australie', 'hu': 'Ausztrália', 'nl': 'Australië', 'de': 'Australien', 'ja': 'オーストラリア', 'pt': 'Austrália', 'ie': 'An Astráil'}","{""de"":""Australien"",""fr"":""Australie"",""hu"":""Ausztrália"",""ie"":""An Astráil"",""ja"":""オーストラリア"",""nl"":""Australië"",""pt"":""Austrália""}"
AT,47.516231,14.550072,Austria,,"{'fr': 'Autriche', 'hu': 'Ausztria', 'nl': 'Oostenrijk', 'de': 'Österreich', 'ja': 'オーストリア', 'pt': 'Áustria', 'co': 'Austrìa', 'ie': 'An Ostair'}","{""co"":""Austrìa"",""de"":""Österreich"",""fr"":""Autriche"",""hu"":""Ausztria"",""ie"":""An Ostair"",""ja"":""オーストリア"",""nl"":""Oostenrijk"",""pt"":""Áustria""}"
AZ,40.143105,47.576927,Azerbaijan,,"{'fr': 'Azerbaïdjan', 'hu': 'Azerbajdzsán', 'nl': 'Azerbeidzjan', 'pl': 'Azerbejdżan', 'de': 'Aserbaidschan', 'ja': 'アゼルバイジャン', 'co': 'Azerbaidzanu', 'es': 'Azerbaiyán', 'pt': 'Azerbaijão', 'ie': 'An Asarbaiseáin'}","{""co"":""Azerbaidzanu"",""de"":""Aserbaidschan"",""es"":""Azerbaiyán"",""fr"":""Azerbaïdjan"",""hu"":""Azerbajdzsán"",""ie"":""An Asarbaiseáin"",""ja"":""アゼルバイジャン"",""nl"":""Azerbeidzjan"",""pl"":""Azerbejdżan"",""pt"":""Azerbaijão""}"
BS,25.03428,-77.39628,Bahamas,,"{'hu': 'Bahama-szigetek', 'nl': ""Bahama's"", 'pl': 'Bahamy', 'ja': 'バハマ', 'eu': 'Bahamak', 'ie': 'Na Bahámaí'}","{""eu"":""Bahamak"",""hu"":""Bahama-szigetek"",""ie"":""Na Bahámaí"",""ja"":""バハマ"",""nl"":""Bahama's"",""pl"":""Bahamy""}"
BH,25.930414,50.637772,Bahrain,,"{'fr': 'Bahreïn', 'hu': 'Bahrein', 'nl': 'Bahrein', 'pl': 'Bahrajn', 'ja': 'バーレーン', 'es': 'Baréin', 'pt': 'Bahrein', 'ie': 'Bairéin'}","{""es"":""Baréin"",""fr"":""Bahreïn"",""hu"":""Bahrein"",""ie"":""Bairéin"",""ja"":""バーレーン"",""nl"":""Bahrein"",""pl"":""Bahrajn"",""pt"":""Bahrein""}"
BD,23.684994,90.356331,Bangladesh,,"{'hu': 'Banglades', 'pl': 'Bangladesz', 'de': 'Bangladesch', 'ja': 'バングラデシュ', 'es': 'Bangladés', 'ie': 'An Bhanglaidéis'}","{""de"":""Bangladesch"",""es"":""Bangladés"",""hu"":""Banglades"",""ie"":""An Bhanglaidéis"",""ja"":""バングラデシュ"",""pl"":""Bangladesz""}"
BB,13.193887,-59.543198,Barbados,,"{'fr': 'Barbade', 'ja': 'バルバドス', 'ie': 'Barbadós'}","{""fr"":""Barbade"",""ie"":""Barbadós"",""ja"":""バルバドス""}"
BY,53.709807,27.953389,Belarus,,"{'fr': 'Biélorussie', 'hu': 'Fehéroroszország', 'pl': 'Białoruś', 'ja': 'ベラルーシ', 'co': 'Bielorussia', 'de': 'Weißrussland', 'es': 'Bielorrusia', 'nl': 'Wit-Rusland', 'pt': 'Bielorrússia', 'eu': 'Bielorrusia', 'ie': 'An Bhealarúis'}","{""co"":""Bielorussia"",""de"":""Weißrussland"",""es"":""Bielorrusia"",""eu"":""Bielorrusia"",""fr"":""Biélorussie"",""hu"":""Fehéroroszország"",""ie"":""An Bhealarúis"",""ja"":""ベラルーシ"",""nl"":""Wit-Rusland"",""pl"":""Białoruś"",""pt"":""Bielorrússia""}"
BE,50.503887,4.469936,Belgium,,"{'fr': 'Belgique', 'nl': 'België', 'pl': 'Belgia', 'de': 'Belgien', 'ja': 'ベルギー', 'co': 'Belgica', 'es': 'Bélgica', 'pt': 'Bélgica', 'eu': 'Belgika', 'ie': 'An Bheilg'}","{""co"":""Belgica"",""de"":""Belgien"",""es"":""Bélgica"",""eu"":""Belgika"",""fr"":""Belgique"",""ie"":""An Bheilg"",""ja"":""ベルギー"",""nl"":""België"",""pl"":""Belgia"",""pt"":""Bélgica""}"
BZ,17.189877,-88.49765,Belize,,"{'ja': 'ベリーズ', 'es': 'Belice', 'ie': 'An Bheilís'}","{""es"":""Belice"",""ie"":""An Bheilís"",""ja"":""ベリーズ""}"
BJ,9.30769,2.315834,Benin,,"{'fr': 'Bénin', 'ja': 'ベナン', 'es': 'Benín', 'co': 'Beninu', 'ie': 'Beinin'}","{""co"":""Beninu"",""es"":""Benín"",""fr"":""Bénin"",""ie"":""Beinin"",""ja"":""ベナン""}"
BM,32.321384,-64.75737,Bermuda,,"{'fr': 'Bermudes', 'pl': 'Bermudy', 'ja': 'バミューダ', 'es': 'Bermudas', 'pt': 'Bermudas', 'co': 'Bermudes', 'ie': 'Beirmiúda'}","{""co"":""Bermudes"",""es"":""Bermudas"",""fr"":""Bermudes"",""ie"":""Beirmiúda"",""ja"":""バミューダ"",""pl"":""Bermudy"",""pt"":""Bermudas""}"
BT,27.514162,90.433601,Bhutan,,"{'fr': 'Bhoutan', 'hu': 'Bhután', 'ja': 'ブータン', 'es': 'Bután', 'pt': 'Butão', 'co': 'Bhutanu', 'ie': 'An Bhútáin'}","{""co"":""Bhutanu"",""es"":""Bután"",""fr"":""Bhoutan"",""hu"":""Bhután"",""ie"":""An Bhútáin"",""ja"":""ブータン"",""pt"":""Butão""}"
BO,-16.290154,-63.588653,Bolivia,,"{'fr': 'Bolivie', 'hu': 'Bolívia', 'pl': 'Boliwia', 'de': 'Bolivien', 'ja': 'ボリビア', 'co': 'Bolivia (Statu plurinaziunale di)', 'pt': 'Bolívia', 'ie': 'An Bholaiv'}","{""co"":""Bolivia (Statu plurinaziunale di)"",""de"":""Bolivien"",""fr"":""Bolivie"",""hu"":""Bolívia"",""ie"":""An Bholaiv"",""ja"":""ボリビア"",""pl"":""Boliwia"",""pt"":""Bolívia""}"
BA,43.915886,17.679076,Bosnia and Herzegovina,,"{'fr': 'Bosnie-Herzégovine', 'hu': 'Bosznia-Hercegovina', 'nl': 'Bosnië en Herzegovina', 'pl': 'Bośnia i Hercegowina', 'de': 'Bosnien und Herzegowina', 'ja': 'ボスニア・ヘルツェゴビナ', 'co': 'Bosnia è Erzegovina', 'es': 'Bosnia y Herzegovina', 'pt': 'Bósnia e Herzegovina', 'eu': 'Bosnia eta Herzegovina', 'ie': 'An Bhoisnia agus an Heirseagaivéin'}","{""co"":""Bosnia è Erzegovina"",""de"":""Bosnien und Herzegowina"",""es"":""Bosnia y Herzegovina"",""eu"":""Bosnia eta Herzegovina"",""fr"":""Bosnie-Herzégovine"",""hu"":""Bosznia-Hercegovina"",""ie"":""An Bhoisnia agus an Heirseagaivéin"",""ja"":""ボスニア・ヘルツェゴビナ"",""nl"":""Bosnië en Herzegovina"",""pl"":""Bośnia i Hercegowina"",""pt"":""Bósnia e Herzegovina""}"
BW,-22.328474,24.684866,Botswana,,"{'ja': 'ボツワナ', 'es': 'Botsuana', 'ie': 'An Bhotsuáin'}","{""es"":""Botsuana"",""ie"":""An Bhotsuáin"",""ja"":""ボツワナ""}"
BV,-54.423199,3.413194,Bouvet Island,,"{'fr': 'Île Bouvet', 'hu': 'Norvégia Bouvet-sziget', 'nl': 'Bouveteiland', 'pl': 'Wyspa Bouveta', 'de': 'Bouvetinsel', 'ja': 'ブーベ島', 'co': 'Isula di Bouvet', 'es': 'Isla Bouvet', 'pt': 'Ilha Bouvet', 'eu': 'Bouvet Uhartea', 'ie': 'Oileán Bouvet'}","{""co"":""Isula di Bouvet"",""de"":""Bouvetinsel"",""es"":""Isla Bouvet"",""eu"":""Bouvet Uhartea"",""fr"":""Île Bouvet"",""hu"":""Norvégia Bouvet-sziget"",""ie"":""Oileán Bouvet"",""ja"":""ブーベ島"",""nl"":""Bouveteiland"",""pl"":""Wyspa Bouveta"",""pt"":""Ilha Bouvet""}"
BR,-14.235004,-51.92528,Brazil,,"{'fr': 'Brésil', 'hu': 'Brazília', 'nl': 'Brazilië', 'pl': 'Brazylia', 'de': 'Brasilien', 'ja': 'ブラジル', 'co': 'Brasile', 'es': 'Brasil', 'pt': 'Brasil', 'eu': 'Brasil', 'ie': 'An Bhrasaíl'}","{""co"":""Brasile"",""de"":""Brasilien"",""es"":""Brasil"",""eu"":""Brasil"",""fr"":""Brésil"",""hu"":""Brazília"",""ie"":""An Bhrasaíl"",""ja"":""ブラジル"",""nl"":""Brazilië"",""pl"":""Brazylia"",""pt"":""Brasil""}"
IO,-6.343194,71.876519,British Indian Ocean Territory,,"{'fr': ""Territoire britannique de l'océan Indien"", 'hu': 'Brit Indiai-óceáni Terület', 'nl': 'Brits Indische Oceaan Gebied', 'pl': 'Brytyjskie Terytorium Oceanu Indyjskiego', 'de': 'Britisches Territorium im Indischen Ozean', 'ja': 'インド洋のイギリス領地', 'co': ""Territorio Britannicu di l'Oceano Índicu"", 'es': 'Territorio Británico del Océano Índico', 'pt': 'Território Britânico do Oceano Índico', 'eu': 'Indiako Ozeanoko Britainiar Lurraldea', 'ie': 'Críoch Aigéan Indiach na Breataine'}","{""co"":""Territorio Britannicu di l'Oceano Índicu"",""de"":""Britisches Territorium im Indischen Ozean"",""es"":""Territorio Británico del Océano Índico"",""eu"":""Indiako Ozeanoko Britainiar Lurraldea"",""fr"":""Territoire britannique de l'océan Indien"",""hu"":""Brit Indiai-óceáni Terület"",""ie"":""Críoch Aigéan Indiach na Breataine"",""ja"":""インド洋のイギリス領地"",""nl"":""Brits Indische Oceaan Gebied"",""pl"":""Brytyjskie Terytorium Oceanu Indyjskiego"",""pt"":""Território Britânico do Oceano Índico""}"
VG,18.420695,-64.639968,British Virgin Islands,,"{'fr': 'Îles Vierges britanniques', 'hu': 'Brit Virgin-szigetek', 'nl': 'Britse Maagdeneilanden', 'pl': 'Brytyjskie Wyspy Dziewicze', 'de': 'Britische Jungferninseln', 'ja': 'イギリス領ヴァージン諸島', 'co': 'Isuli Vergini Britanniche', 'es': 'Islas Vírgenes Británicas', 'pt': 'Ilhas Virgens Britânicas', 'eu': 'Birjina uharte britainiarrak', 'ie': 'Oileáin Bhriotanacha na Maighdean'}","{""co"":""Isuli Vergini Britanniche"",""de"":""Britische Jungferninseln"",""es"":""Islas Vírgenes Británicas"",""eu"":""Birjina uharte britainiarrak"",""fr"":""Îles Vierges britanniques"",""hu"":""Brit Virgin-szigetek"",""ie"":""Oileáin Bhriotanacha na Maighdean"",""ja"":""イギリス領ヴァージン諸島"",""nl"":""Britse Maagdeneilanden"",""pl"":""Brytyjskie Wyspy Dziewicze"",""pt"":""Ilhas Virgens Britânicas""}"
BN,4.535277,114.727669,Brunei,,"{'fr': 'Brunéi', 'ja': 'ブルネイ', 'co': 'Brunei Darussalam', 'es': 'Brunéi', 'ie': 'Brúiné'}","{""co"":""Brunei Darussalam"",""es"":""Brunéi"",""fr"":""Brunéi"",""ie"":""Brúiné"",""ja"":""ブルネイ""}"
BG,42.733883,25.48583,Bulgaria,,"{'fr': 'Bulgarie', 'hu': 'Bulgária', 'nl': 'Bulgarije', 'pl': 'Bułgaria', 'de': 'Bulgarien', 'ja': 'ブルガリア', 'pt': 'Bulgária', 'ie': 'An Bhulgáir'}","{""de"":""Bulgarien"",""fr"":""Bulgarie"",""hu"":""Bulgária"",""ie"":""An Bhulgáir"",""ja"":""ブルガリア"",""nl"":""Bulgarije"",""pl"":""Bułgaria"",""pt"":""Bulgária""}"
BF,12.238333,-1.561593,Burkina Faso,,"{'fr': 'Burkina Faso', 'es': 'Burkina Faso', 'eu': 'Burkina Faso', 'hu': 'Burkina Faso', 'nl': 'Burkina Faso', 'pl': 'Burkina Faso', 'pt': 'Burquina Fasso', 'de': 'Burkina Faso', 'ja': 'ブルキナファソ', 'co': 'Burkina Faso', 'ie': 'Buircíne Fasó'}","{""co"":""Burkina Faso"",""de"":""Burkina Faso"",""es"":""Burkina Faso"",""eu"":""Burkina Faso"",""fr"":""Burkina Faso"",""hu"":""Burkina Faso"",""ie"":""Buircíne Fasó"",""ja"":""ブルキナファソ"",""nl"":""Burkina Faso"",""pl"":""Burkina Faso"",""pt"":""Burquina Fasso""}"
BI,-3.373056,29.918886,Burundi,,"{'ja': 'ブルンジ', 'ie': 'An Bhurúin'}","{""ie"":""An Bhurúin"",""ja"":""ブルンジ""}"
KH,12.565679,104.990963,Cambodia,,"{'fr': 'Cambodge', 'hu': 'Kambodzsa', 'nl': 'Cambodja', 'pl': 'Kambodża', 'de': 'Kambodscha', 'ja': 'カンボジア', 'co': 'Cambudgia', 'es': 'Camboya', 'pt': 'Camboja', 'eu': 'Kanbodia', 'ie': 'An Chambóid'}","{""co"":""Cambudgia"",""de"":""Kambodscha"",""es"":""Camboya"",""eu"":""Kanbodia"",""fr"":""Cambodge"",""hu"":""Kambodzsa"",""ie"":""An Chambóid"",""ja"":""カンボジア"",""nl"":""Cambodja"",""pl"":""Kambodża"",""pt"":""Camboja""}"
CM,7.369722,12.354722,Cameroon,,"{'fr': 'Cameroun', 'hu': 'Kamerun', 'nl': 'Kameroen', 'pl': 'Kamerun', 'de': 'Kamerun', 'ja': 'カメルーン', 'co': 'Cameruna', 'es': 'Camerún', 'pt': 'Camarões', 'eu': 'Kamerun', 'ie': 'Camarún'}","{""co"":""Cameruna"",""de"":""Kamerun"",""es"":""Camerún"",""eu"":""Kamerun"",""fr"":""Cameroun"",""hu"":""Kamerun"",""ie"":""Camarún"",""ja"":""カメルーン"",""nl"":""Kameroen"",""pl"":""Kamerun"",""pt"":""Camarões""}"
CA,56.130366,-106.346771,Canada,,"{'hu': 'Kanada', 'pl': 'Kanada', 'de': 'Kanada', 'ja': 'カナダ', 'es': 'Canadá', 'pt': 'Canadá', 'co': 'Candia', 'eu': 'Kanada', 'ie': 'Ceanada'}","{""co"":""Candia"",""de"":""Kanada"",""es"":""Canadá"",""eu"":""Kanada"",""hu"":""Kanada"",""ie"":""Ceanada"",""ja"":""カナダ"",""pl"":""Kanada"",""pt"":""Canadá""}"
CV,16.002082,-24.013197,Cabo Verde,,"{'fr': 'Cap-Vert', 'hu': 'Zöld-foki Köztársaság', 'nl': 'Kaapverdië', 'pl': 'Zielony Przylądek', 'de': 'Kap Verde', 'ja': 'カーボベルデ', 'co': 'Capu Verde', 'ie': 'Rinn Verde'}","{""co"":""Capu Verde"",""de"":""Kap Verde"",""fr"":""Cap-Vert"",""hu"":""Zöld-foki Köztársaság"",""ie"":""Rinn Verde"",""ja"":""カーボベルデ"",""nl"":""Kaapverdië"",""pl"":""Zielony Przylądek""}"
KY,19.513469,-80.566956,Cayman Islands,,"{'fr': 'Îles Caïmans', 'hu': 'Kajmán-szigetek', 'nl': 'Kaaimaneilanden', 'pl': 'Wyspy Kajmańskie', 'ja': 'ケイマン諸島', 'co': 'Isole Di Cayman', 'es': 'Islas Caimán', 'pt': 'Ilhas Cayman', 'eu': 'Kaiman Uharteak', 'ie': 'Oileáin Cayman'}","{""co"":""Isole Di Cayman"",""es"":""Islas Caimán"",""eu"":""Kaiman Uharteak"",""fr"":""Îles Caïmans"",""hu"":""Kajmán-szigetek"",""ie"":""Oileáin Cayman"",""ja"":""ケイマン諸島"",""nl"":""Kaaimaneilanden"",""pl"":""Wyspy Kajmańskie"",""pt"":""Ilhas Cayman""}"
CF,6.611111,20.939444,Central African Republic,,"{'fr': 'République centrafricaine', 'hu': 'Közép-Afrika', 'nl': 'Centraal-Afrikaanse Republiek', 'pl': 'Republika Środkowoafrykańska', 'de': 'Zentralafrikanische Republik', 'ja': '中央アフリカ共和国', 'co': 'Republica Centru-Afrikarra', 'es': 'República Centroafricana', 'pt': 'República Centro-Africana', 'eu': 'Afrika Erdiko Errepublika', 'ie': 'Poblacht na hAfraice Láir'}","{""co"":""Republica Centru-Afrikarra"",""de"":""Zentralafrikanische Republik"",""es"":""República Centroafricana"",""eu"":""Afrika Erdiko Errepublika"",""fr"":""République centrafricaine"",""hu"":""Közép-Afrika"",""ie"":""Poblacht na hAfraice Láir"",""ja"":""中央アフリカ共和国"",""nl"":""Centraal-Afrikaanse Republiek"",""pl"":""Republika Środkowoafrykańska"",""pt"":""República Centro-Africana""}"
TD,15.454166,18.732207,Chad,,"{'fr': 'Tchad', 'hu': 'Csád', 'nl': 'Tsjaad', 'pl': 'Czad', 'de': 'Tschad', 'ja': 'チャド', 'co': 'Ciad', 'pt': 'Chade', 'eu': 'Txad', 'ie': 'Sead'}","{""co"":""Ciad"",""de"":""Tschad"",""eu"":""Txad"",""fr"":""Tchad"",""hu"":""Csád"",""ie"":""Sead"",""ja"":""チャド"",""nl"":""Tsjaad"",""pl"":""Czad"",""pt"":""Chade""}"
CL,-35.675147,-71.542969,Chile,,"{'fr': 'Chili', 'nl': 'Chili', 'ja': 'チリ', 'co': 'Cile', 'eu': 'Txile', 'ie': 'An tSile'}","{""co"":""Cile"",""eu"":""Txile"",""fr"":""Chili"",""ie"":""An tSile"",""ja"":""チリ"",""nl"":""Chili""}"
CN,35.86166,104.195397,China,,"{'fr': 'Chine', 'hu': 'Kína', 'pl': 'Chiny', 'de': 'Volksrepublik China', 'ja': '中国', 'co': 'Cina', 'eu': 'Txina', 'ie': 'An tSín'}","{""co"":""Cina"",""de"":""Volksrepublik China"",""eu"":""Txina"",""fr"":""Chine"",""hu"":""Kína"",""ie"":""An tSín"",""ja"":""中国"",""pl"":""Chiny""}"
CX,-10.447525,105.690449,Christmas Island,,"{'fr': 'Île Christmas', 'hu': 'Karácsony-sziget', 'nl': 'Christmaseiland', 'pl': 'Wyspa Bożego Narodzenia', 'de': 'Weihnachtsinsel', 'ja': 'クリスマス島', 'co': 'Isula Di Natale', 'es': 'Isla de Navidad', 'pt': 'Ilha Christmas', 'eu': 'Christmas uhartea', 'ie': 'Oileán na Nollag'}","{""co"":""Isula Di Natale"",""de"":""Weihnachtsinsel"",""es"":""Isla de Navidad"",""eu"":""Christmas uhartea"",""fr"":""Île Christmas"",""hu"":""Karácsony-sziget"",""ie"":""Oileán na Nollag"",""ja"":""クリスマス島"",""nl"":""Christmaseiland"",""pl"":""Wyspa Bożego Narodzenia"",""pt"":""Ilha Christmas""}"
CC,-12.164165,96.870956,Cocos Islands,,"{'fr': 'Îles Cocos', 'hu': 'Kókusz (Keeling)-szigetek', 'nl': 'Cocoseilanden', 'pl': 'Wyspy Kokosowe', 'de': 'Kokosinseln', 'ja': 'ココス諸島', 'co': 'Isule Cocos', 'es': 'Islas Cocos', 'pt': 'Ilhas Cocos', 'eu': 'Cocosak', 'ie': 'Oileáin Cocos'}","{""co"":""Isule Cocos"",""de"":""Kokosinseln"",""es"":""Islas Cocos"",""eu"":""Cocosak"",""fr"":""Îles Cocos"",""hu"":""Kókusz (Keeling)-szigetek"",""ie"":""Oileáin Cocos"",""ja"":""ココス諸島"",""nl"":""Cocoseilanden"",""pl"":""Wyspy Kokosowe"",""pt"":""Ilhas Cocos""}"
CO,4.570868,-74.297333,Colombia,,"{'fr': 'Colombie', 'hu': 'Kolumbia', 'pl': 'Kolumbia', 'de': 'Kolumbien', 'ja': 'コロンビア', 'pt': 'Colômbia', 'co': 'Colòmbia', 'eu': 'Kolonbia', 'ie': 'An Cholóim'}","{""co"":""Colòmbia"",""de"":""Kolumbien"",""eu"":""Kolonbia"",""fr"":""Colombie"",""hu"":""Kolumbia"",""ie"":""An Cholóim"",""ja"":""コロンビア"",""pl"":""Kolumbia"",""pt"":""Colômbia""}"
KM,-11.875001,43.872219,Comoros,,"{'fr': 'Comores', 'hu': 'Comore-szigetek', 'nl': 'Comoren', 'pl': 'Komory', 'de': 'Komoren', 'ja': 'コモロ', 'co': 'Cumori', 'es': 'Comoras', 'pt': 'Comores', 'eu': 'Komoreak', 'ie': 'Oileáin Chomóra'}","{""co"":""Cumori"",""de"":""Komoren"",""es"":""Comoras"",""eu"":""Komoreak"",""fr"":""Comores"",""hu"":""Comore-szigetek"",""ie"":""Oileáin Chomóra"",""ja"":""コモロ"",""nl"":""Comoren"",""pl"":""Komory"",""pt"":""Comores""}"
CG,-0.228021,15.827659,Republic of the Congo,,"{'hu': 'KONGÓI KÖZTÁRSASÁG', 'nl': 'Congo-Brazzaville', 'pl': 'REPUBLIKA KONGA', 'de': 'REPUBLIK KONGO', 'ja': 'コンゴ共和国', 'co': 'Republica di u Congo', 'es': 'República del Congo', 'eu': 'Kongoko Errepublika', 'pt': 'REPÚBLICA DO CONGO', 'fr': 'RÉPUBLIQUE DU CONGO', 'ie': 'An Congó'}","{""co"":""Republica di u Congo"",""de"":""REPUBLIK KONGO"",""es"":""República del Congo"",""eu"":""Kongoko Errepublika"",""fr"":""RÉPUBLIQUE DU CONGO"",""hu"":""KONGÓI KÖZTÁRSASÁG"",""ie"":""An Congó"",""ja"":""コンゴ共和国"",""nl"":""Congo-Brazzaville"",""pl"":""REPUBLIKA KONGA"",""pt"":""REPÚBLICA DO CONGO""}"
CK,-21.236736,-159.777671,Cook Islands,,"{'fr': 'Îles Cook', 'hu': 'Cook-szigetek', 'nl': 'Cookeilanden', 'pl': 'Wyspy Cooka', 'de': 'Cookinseln', 'ja': 'クック諸島', 'co': 'Isule Cook', 'es': 'Islas Cook', 'pt': 'Ilhas Cook', 'eu': 'Cook Uharteak', 'ie': 'Oileáin Cook'}","{""co"":""Isule Cook"",""de"":""Cookinseln"",""es"":""Islas Cook"",""eu"":""Cook Uharteak"",""fr"":""Îles Cook"",""hu"":""Cook-szigetek"",""ie"":""Oileáin Cook"",""ja"":""クック諸島"",""nl"":""Cookeilanden"",""pl"":""Wyspy Cooka"",""pt"":""Ilhas Cook""}"
CR,9.748917,-83.753428,Costa Rica,,"{'pl': 'Kostaryka', 'ja': 'コスタリカ', 'ie': 'Cósta Ríce'}","{""ie"":""Cósta Ríce"",""ja"":""コスタリカ"",""pl"":""Kostaryka""}"
CI,7.539989,-5.54708,Côte d'Ivoire,,"{'hu': 'Elefántcsontpart', 'nl': 'Ivoorkust', 'pl': 'Wybrzeże Kości Słoniowej', 'de': 'Elfenbeinküste', 'ja': 'コートジボワール', 'co': ""Costa d'Avoriu"", 'es': 'Costa de Marfil', 'pt': 'Costa do Marfim', 'eu': 'Boli Kosta', 'ie': 'An Cósta Eabhair'}","{""co"":""Costa d'Avoriu"",""de"":""Elfenbeinküste"",""es"":""Costa de Marfil"",""eu"":""Boli Kosta"",""hu"":""Elefántcsontpart"",""ie"":""An Cósta Eabhair"",""ja"":""コートジボワール"",""nl"":""Ivoorkust"",""pl"":""Wybrzeże Kości Słoniowej"",""pt"":""Costa do Marfim""}"
HR,45.1,15.2,Croatia,,"{'fr': 'Croatie', 'es': 'Croacia', 'eu': 'Kroazia', 'hu': 'Horvátország', 'nl': 'Kroatië', 'pl': 'Chorwacja', 'pt': 'Croácia', 'de': 'Kroatien', 'ja': 'クロアチア', 'co': 'Croazia', 'ie': 'An Chróit'}","{""co"":""Croazia"",""de"":""Kroatien"",""es"":""Croacia"",""eu"":""Kroazia"",""fr"":""Croatie"",""hu"":""Horvátország"",""ie"":""An Chróit"",""ja"":""クロアチア"",""nl"":""Kroatië"",""pl"":""Chorwacja"",""pt"":""Croácia""}"
CU,21.521757,-77.781167,Cuba,,"{'hu': 'Kuba', 'pl': 'Kuba', 'de': 'Kuba', 'ja': 'キューバ', 'eu': 'Kuba', 'ie': 'Cúba'}","{""de"":""Kuba"",""eu"":""Kuba"",""hu"":""Kuba"",""ie"":""Cúba"",""ja"":""キューバ"",""pl"":""Kuba""}"
CY,35.126413,33.429859,Cyprus,,"{'fr': 'Chypre', 'hu': 'Ciprus', 'pl': 'Cypr', 'de': 'Zypern', 'ja': 'キプロス', 'co': 'Chipre', 'es': 'Chipre', 'pt': 'Chipre', 'eu': 'Zipre', 'ie': 'An Chipir'}","{""co"":""Chipre"",""de"":""Zypern"",""es"":""Chipre"",""eu"":""Zipre"",""fr"":""Chypre"",""hu"":""Ciprus"",""ie"":""An Chipir"",""ja"":""キプロス"",""pl"":""Cypr"",""pt"":""Chipre""}"
CZ,49.817492,15.472962,Czechia,,"{'fr': 'Tchéquie', 'hu': 'Csehország', 'nl': 'Tsjechië', 'pl': 'Czechy', 'de': 'Tschechien', 'ja': 'チェコ', 'co': 'Republica Cecca', 'es': 'República Checa', 'pt': 'República Checa', 'eu': 'Txekia', 'ie': 'An tSeicia'}","{""co"":""Republica Cecca"",""de"":""Tschechien"",""es"":""República Checa"",""eu"":""Txekia"",""fr"":""Tchéquie"",""hu"":""Csehország"",""ie"":""An tSeicia"",""ja"":""チェコ"",""nl"":""Tsjechië"",""pl"":""Czechy"",""pt"":""República Checa""}"
CD,-4.038333,21.758664,Democratic Republic of the Congo,,"{'fr': 'République démocratique du Congo', 'hu': 'Kongói Demokratikus Köztársaság (Zaire)', 'nl': 'Congo-Kinshasa', 'pl': 'Demokratyczna Republika Konga', 'de': 'Demokratische Republik Kongo', 'ja': 'コンゴ民主共和国', 'co': 'Republica Democratica di u Congo', 'es': 'República Democrática del Congo', 'pt': 'República Democrática do Congo', 'eu': 'Kongoko Errepublika Demokratikoa', 'ie': 'Poblacht Dhaonlathach an Chongó'}","{""co"":""Republica Democratica di u Congo"",""de"":""Demokratische Republik Kongo"",""es"":""República Democrática del Congo"",""eu"":""Kongoko Errepublika Demokratikoa"",""fr"":""République démocratique du Congo"",""hu"":""Kongói Demokratikus Köztársaság (Zaire)"",""ie"":""Poblacht Dhaonlathach an Chongó"",""ja"":""コンゴ民主共和国"",""nl"":""Congo-Kinshasa"",""pl"":""Demokratyczna Republika Konga"",""pt"":""República Democrática do Congo""}"
DK,56.26392,9.501785,Denmark,,"{'fr': 'Danemark', 'hu': 'Dánia', 'nl': 'Denemarken', 'pl': 'Dania', 'de': 'Dänemark', 'ja': 'デンマーク', 'co': 'Danimarcu', 'es': 'Dinamarca', 'pt': 'Dinamarca', 'eu': 'Danimarka', 'ie': 'An Danmhairg'}","{""co"":""Danimarcu"",""de"":""Dänemark"",""es"":""Dinamarca"",""eu"":""Danimarka"",""fr"":""Danemark"",""hu"":""Dánia"",""ie"":""An Danmhairg"",""ja"":""デンマーク"",""nl"":""Denemarken"",""pl"":""Dania"",""pt"":""Dinamarca""}"
DJ,11.825138,42.590275,Djibouti,,"{'hu': 'Dzsibuti', 'pl': 'Dżibuti', 'de': 'Dschibuti', 'ja': 'ジブチ', 'es': 'Yibuti', 'pt': 'Djibuti', 'co': 'Ghjibutu', 'eu': 'Djibuti', 'ie': 'Diobúití'}","{""co"":""Ghjibutu"",""de"":""Dschibuti"",""es"":""Yibuti"",""eu"":""Djibuti"",""hu"":""Dzsibuti"",""ie"":""Diobúití"",""ja"":""ジブチ"",""pl"":""Dżibuti"",""pt"":""Djibuti""}"
DM,15.414999,-61.370976,Dominica,,"{'fr': 'Dominique', 'hu': 'Dominikai Közösség', 'pl': 'Dominika', 'ja': 'ドミニカ', 'co': 'Dumenica', 'eu': 'Dominika', 'ie': 'Doiminice'}","{""co"":""Dumenica"",""eu"":""Dominika"",""fr"":""Dominique"",""hu"":""Dominikai Közösség"",""ie"":""Doiminice"",""ja"":""ドミニカ"",""pl"":""Dominika""}"
DO,18.735693,-70.162651,Dominican Republic,,"{'fr': 'République dominicaine', 'hu': 'Dominikai Köztársaság', 'nl': 'Dominicaanse Republiek', 'pl': 'Republika Dominikańska', 'de': 'Dominikanische Republik', 'ja': 'ドミニカ共和国', 'co': 'Republica Dominica', 'es': 'República Dominicana', 'pt': 'República Dominicana', 'eu': 'Dominikar Errepublika', 'ie': 'An Phoblacht Dhoiminiceach'}","{""co"":""Republica Dominica"",""de"":""Dominikanische Republik"",""es"":""República Dominicana"",""eu"":""Dominikar Errepublika"",""fr"":""République dominicaine"",""hu"":""Dominikai Köztársaság"",""ie"":""An Phoblacht Dhoiminiceach"",""ja"":""ドミニカ共和国"",""nl"":""Dominicaanse Republiek"",""pl"":""Republika Dominikańska"",""pt"":""República Dominicana""}"
EC,-1.831239,-78.183406,Ecuador,,"{'fr': 'Équateur', 'pl': 'Ekwador', 'ja': 'エクアドル', 'co': 'Equatore', 'pt': 'Equador', 'eu': 'Ekuador', 'ie': 'Eacuadór'}","{""co"":""Equatore"",""eu"":""Ekuador"",""fr"":""Équateur"",""ie"":""Eacuadór"",""ja"":""エクアドル"",""pl"":""Ekwador"",""pt"":""Equador""}"
EG,26.820553,30.802498,Egypt,,"{'fr': 'Égypte', 'hu': 'Egyiptom', 'nl': 'Egypte', 'pl': 'Egipt', 'de': 'Ägypten', 'ja': 'エジプト', 'co': 'Egitu', 'es': 'Egipto', 'pt': 'Egito', 'eu': 'Egipto', 'ie': 'An Éigipt'}","{""co"":""Egitu"",""de"":""Ägypten"",""es"":""Egipto"",""eu"":""Egipto"",""fr"":""Égypte"",""hu"":""Egyiptom"",""ie"":""An Éigipt"",""ja"":""エジプト"",""nl"":""Egypte"",""pl"":""Egipt"",""pt"":""Egito""}"
SV,13.794185,-88.89653,El Salvador,,"{'fr': 'Salvador', 'hu': 'Salvador', 'pl': 'Salwador', 'ja': 'エルサルバドル', 'co': 'Salvadoru', 'ie': 'An tSalvadóir'}","{""co"":""Salvadoru"",""fr"":""Salvador"",""hu"":""Salvador"",""ie"":""An tSalvadóir"",""ja"":""エルサルバドル"",""pl"":""Salwador""}"
GQ,1.650801,10.267895,Equatorial Guinea,,"{'fr': 'Guinée équatoriale', 'hu': 'Egyenlítői-Guinea', 'nl': 'Equatoriaal-Guinea', 'pl': 'Gwinea Równikowa', 'de': 'Äquatorialguinea', 'ja': '赤道ギニア', 'co': 'Guinèa Equatoriale', 'es': 'Guinea Ecuatorial', 'pt': 'Guiné Equatorial', 'eu': 'Ekuatore Ginea', 'ie': 'An Ghuine Mheánchiorclach'}","{""co"":""Guinèa Equatoriale"",""de"":""Äquatorialguinea"",""es"":""Guinea Ecuatorial"",""eu"":""Ekuatore Ginea"",""fr"":""Guinée équatoriale"",""hu"":""Egyenlítői-Guinea"",""ie"":""An Ghuine Mheánchiorclach"",""ja"":""赤道ギニア"",""nl"":""Equatoriaal-Guinea"",""pl"":""Gwinea Równikowa"",""pt"":""Guiné Equatorial""}"
ER,15.179384,39.782334,Eritrea,,"{'fr': 'Érythrée', 'pl': 'Erytrea', 'ja': 'エリトリア', 'pt': 'Eritreia', 'ie': 'An Eiritré'}","{""fr"":""Érythrée"",""ie"":""An Eiritré"",""ja"":""エリトリア"",""pl"":""Erytrea"",""pt"":""Eritreia""}"
EE,58.595272,25.013607,Estonia,,"{'fr': 'Estonie', 'hu': 'Észtország', 'nl': 'Estland', 'de': 'Estland', 'ja': 'エストニア', 'pt': 'Estônia', 'ie': 'An Eastóin'}","{""de"":""Estland"",""fr"":""Estonie"",""hu"":""Észtország"",""ie"":""An Eastóin"",""ja"":""エストニア"",""nl"":""Estland"",""pt"":""Estônia""}"
SZ,-26.522503,31.465866,Eswatini,,"{'hu': 'Szváziföld', 'nl': 'Swaziland', 'ja': 'スワジランド', 'es': 'Esuatini', 'co': 'Swaziland', 'ie': 'eSuatíní'}","{""co"":""Swaziland"",""es"":""Esuatini"",""hu"":""Szváziföld"",""ie"":""eSuatíní"",""ja"":""スワジランド"",""nl"":""Swaziland""}"
ET,9.145,40.489673,Ethiopia,,"{'fr': 'Éthiopie', 'hu': 'Etiópia', 'nl': 'Ethiopië', 'pl': 'Etiopia', 'de': 'Äthiopien', 'ja': 'エチオピア', 'co': 'Etiopia', 'es': 'Etiopía', 'pt': 'Etiópia', 'eu': 'Etiopia', 'ie': 'An Aetóip'}","{""co"":""Etiopia"",""de"":""Äthiopien"",""es"":""Etiopía"",""eu"":""Etiopia"",""fr"":""Éthiopie"",""hu"":""Etiópia"",""ie"":""An Aetóip"",""ja"":""エチオピア"",""nl"":""Ethiopië"",""pl"":""Etiopia"",""pt"":""Etiópia""}"
FK,-51.796253,-59.523613,Falkland Islands (Malvinas),,"{'fr': 'Îles Malouines', 'hu': 'Falkland-szigetek', 'nl': 'Falklandeilanden', 'pl': 'Wyspy Falklandzkie', 'de': 'Falklandinseln', 'ja': 'フォークランド諸島', 'co': 'Isole Falkland', 'es': 'Islas Malvinas', 'pt': 'Ilhas Malvinas', 'eu': 'Falkland Uharteak', 'ie': 'Oileáin Fháclainne'}","{""co"":""Isole Falkland"",""de"":""Falklandinseln"",""es"":""Islas Malvinas"",""eu"":""Falkland Uharteak"",""fr"":""Îles Malouines"",""hu"":""Falkland-szigetek"",""ie"":""Oileáin Fháclainne"",""ja"":""フォークランド諸島"",""nl"":""Falklandeilanden"",""pl"":""Wyspy Falklandzkie"",""pt"":""Ilhas Malvinas""}"
FO,61.892635,-6.911806,Faroe Islands,,"{'fr': 'Îles Féroé', 'hu': 'Feröer', 'nl': 'Faeröer', 'pl': 'Wyspy Owcze', 'de': 'Färöer', 'ja': 'フェロー諸島', 'co': 'Isule Faroe', 'es': 'Islas Feroe', 'pt': 'Ilhas Faroé', 'eu': 'Faroe Uharteak', 'ie': 'Oileáin Fharó'}","{""co"":""Isule Faroe"",""de"":""Färöer"",""es"":""Islas Feroe"",""eu"":""Faroe Uharteak"",""fr"":""Îles Féroé"",""hu"":""Feröer"",""ie"":""Oileáin Fharó"",""ja"":""フェロー諸島"",""nl"":""Faeröer"",""pl"":""Wyspy Owcze"",""pt"":""Ilhas Faroé""}"
FJ,-16.578193,179.414413,Fiji,,"{'fr': 'Fidji', 'hu': 'Fidzsi', 'pl': 'Fidżi', 'de': 'Fidschi', 'ja': 'フィジー', 'co': 'Figi', 'es': 'Fiyi', 'ie': 'Fidsí'}","{""co"":""Figi"",""de"":""Fidschi"",""es"":""Fiyi"",""fr"":""Fidji"",""hu"":""Fidzsi"",""ie"":""Fidsí"",""ja"":""フィジー"",""pl"":""Fidżi""}"
FI,61.92411,25.748151,Finland,,"{'fr': 'Finlande', 'hu': 'Finnország', 'pl': 'Finlandia', 'de': 'Finnland', 'ja': 'フィンランド', 'co': 'Finlanda', 'es': 'Finlandia', 'pt': 'Finlândia', 'eu': 'Finlandia', 'ie': 'An Fhionlainn'}","{""co"":""Finlanda"",""de"":""Finnland"",""es"":""Finlandia"",""eu"":""Finlandia"",""fr"":""Finlande"",""hu"":""Finnország"",""ie"":""An Fhionlainn"",""ja"":""フィンランド"",""pl"":""Finlandia"",""pt"":""Finlândia""}"
FR,46.227638,2.213749,France,,"{'hu': 'Franciaország', 'nl': 'Frankrijk', 'pl': 'Francja', 'de': 'Frankreich', 'ja': 'フランス', 'co': 'Francia', 'es': 'Francia', 'pt': 'França', 'eu': 'Frantzia', 'ie': 'An Fhrainc'}","{""co"":""Francia"",""de"":""Frankreich"",""es"":""Francia"",""eu"":""Frantzia"",""hu"":""Franciaország"",""ie"":""An Fhrainc"",""ja"":""フランス"",""nl"":""Frankrijk"",""pl"":""Francja"",""pt"":""França""}"
GF,3.933889,-53.125782,French Guiana,,"{'fr': 'Guyane française', 'hu': 'Francia Guyana Francia Guyana', 'nl': 'Frans-Guyana', 'pl': 'Gujana Francuska', 'de': 'Französisch-Guayana', 'ja': 'フランス領ギアナ', 'co': 'Ghjana Francesa', 'es': 'Guayana Francesa', 'pt': 'Guiana Francesa', 'eu': 'Frantziako Guyana', 'ie': 'Guáin na Fraince'}","{""co"":""Ghjana Francesa"",""de"":""Französisch-Guayana"",""es"":""Guayana Francesa"",""eu"":""Frantziako Guyana"",""fr"":""Guyane française"",""hu"":""Francia Guyana Francia Guyana"",""ie"":""Guáin na Fraince"",""ja"":""フランス領ギアナ"",""nl"":""Frans-Guyana"",""pl"":""Gujana Francuska"",""pt"":""Guiana Francesa""}"
PF,-17.679742,-149.406843,French Polynesia,,"{'fr': 'Polynésie française', 'hu': 'Francia Polinézia', 'nl': 'Frans-Polynesië', 'pl': 'Polinezja Francuska', 'de': 'FRANZÖSISCH-POLYNESIEN', 'ja': 'フランス領ポリネシア', 'co': 'Polinesia Francesa', 'es': 'Polinesia Francesa', 'pt': 'Polinésia Francesa', 'eu': 'Polinesia Frantsesa', 'ie': 'Polainéis na Fraince'}","{""co"":""Polinesia Francesa"",""de"":""FRANZÖSISCH-POLYNESIEN"",""es"":""Polinesia Francesa"",""eu"":""Polinesia Frantsesa"",""fr"":""Polynésie française"",""hu"":""Francia Polinézia"",""ie"":""Polainéis na Fraince"",""ja"":""フランス領ポリネシア"",""nl"":""Frans-Polynesië"",""pl"":""Polinezja Francuska"",""pt"":""Polinésia Francesa""}"
TF,-49.280366,69.348557,French Southern Territories,,"{'fr': 'Terres australes françaises', 'hu': 'Francia déli és antarktiszi területek', 'nl': 'Franse Zuidelijke Gebieden', 'pl': 'Francuskie Terytoria Południowe', 'de': 'Französische Süd- und Antarktisgebiete', 'ja': 'フランス領南方・南極地域', 'co': 'Terre Francesce Meridiunali', 'es': 'Tierras Australes y Antárticas Francesas', 'pt': 'Territórios Franceses do Sul', 'eu': 'Frantziaren Lurralde Austral eta Antartikoak', 'ie': 'Críocha Francacha Deisceartacha agus Antartacha'}","{""co"":""Terre Francesce Meridiunali"",""de"":""Französische Süd- und Antarktisgebiete"",""es"":""Tierras Australes y Antárticas Francesas"",""eu"":""Frantziaren Lurralde Austral eta Antartikoak"",""fr"":""Terres australes françaises"",""hu"":""Francia déli és antarktiszi területek"",""ie"":""Críocha Francacha Deisceartacha agus Antartacha"",""ja"":""フランス領南方・南極地域"",""nl"":""Franse Zuidelijke Gebieden"",""pl"":""Francuskie Terytoria Południowe"",""pt"":""Territórios Franceses do Sul""}"
GA,-0.803689,11.609444,Gabon,,"{'de': 'Gabun', 'ja': 'ガボン', 'es': 'Gabón', 'pt': 'Gabão', 'co': 'Gabone', 'ie': 'An Ghabúin'}","{""co"":""Gabone"",""de"":""Gabun"",""es"":""Gabón"",""ie"":""An Ghabúin"",""ja"":""ガボン"",""pt"":""Gabão""}"
GM,13.443182,-15.310139,The Gambia,,"{'fr': 'Gambie', 'ja': 'ガンビア', 'pt': 'Gâmbia', 'ie': 'An Ghaimbia'}","{""fr"":""Gambie"",""ie"":""An Ghaimbia"",""ja"":""ガンビア"",""pt"":""Gâmbia""}"
GE,42.315407,43.356892,Georgia,,"{'fr': 'Géorgie', 'hu': 'Grúzia', 'nl': 'Georgië', 'pl': 'Gruzja', 'de': 'Georgien', 'ja': 'ジョージア', 'pt': 'Geórgia', 'co': 'Ghjorgia', 'ie': 'An tSeoirsia'}","{""co"":""Ghjorgia"",""de"":""Georgien"",""fr"":""Géorgie"",""hu"":""Grúzia"",""ie"":""An tSeoirsia"",""ja"":""ジョージア"",""nl"":""Georgië"",""pl"":""Gruzja"",""pt"":""Geórgia""}"
DE,51.165691,10.451526,Germany,,"{'fr': 'Allemagne', 'hu': 'Németország', 'nl': 'Duitsland', 'pl': 'Niemcy', 'de': 'Deutschland', 'ja': 'ドイツ', 'co': 'Germania', 'es': 'Alemania', 'pt': 'Alemanha', 'eu': 'Alemania', 'ie': 'An Ghearmáin'}","{""co"":""Germania"",""de"":""Deutschland"",""es"":""Alemania"",""eu"":""Alemania"",""fr"":""Allemagne"",""hu"":""Németország"",""ie"":""An Ghearmáin"",""ja"":""ドイツ"",""nl"":""Duitsland"",""pl"":""Niemcy"",""pt"":""Alemanha""}"
GH,7.946527,-1.023194,Ghana,,"{'hu': 'Ghána', 'ja': 'ガーナ', 'pt': 'Gana', 'ie': 'Gána'}","{""hu"":""Ghána"",""ie"":""Gána"",""ja"":""ガーナ"",""pt"":""Gana""}"
GI,36.137741,-5.345374,Gibraltar,,"{'hu': 'Gibraltár', 'ja': 'ジブラルタル', 'co': 'Ghjibiltari', 'ie': 'Giobráltar'}","{""co"":""Ghjibiltari"",""hu"":""Gibraltár"",""ie"":""Giobráltar"",""ja"":""ジブラルタル""}"
GR,39.074208,21.824312,Greece,,"{'fr': 'Grèce', 'hu': 'Görögország', 'nl': 'Griekenland', 'pl': 'Grecja', 'de': 'Griechenland', 'ja': 'ギリシャ', 'co': 'Grecia', 'es': 'Grecia', 'pt': 'Grécia', 'eu': 'Grezia', 'ie': 'An Ghréig'}","{""co"":""Grecia"",""de"":""Griechenland"",""es"":""Grecia"",""eu"":""Grezia"",""fr"":""Grèce"",""hu"":""Görögország"",""ie"":""An Ghréig"",""ja"":""ギリシャ"",""nl"":""Griekenland"",""pl"":""Grecja"",""pt"":""Grécia""}"
GL,71.706936,-42.604303,Greenland,,"{'fr': 'Groenland', 'hu': 'Grönland', 'nl': 'Groenland', 'pl': 'Grenlandia', 'de': 'Grönland', 'ja': 'グリーンランド', 'es': 'Groenlandia', 'pt': 'Gronelândia', 'co': 'Groenlanda', 'eu': 'Groenlandia', 'ie': 'An Ghraonlainn'}","{""co"":""Groenlanda"",""de"":""Grönland"",""es"":""Groenlandia"",""eu"":""Groenlandia"",""fr"":""Groenland"",""hu"":""Grönland"",""ie"":""An Ghraonlainn"",""ja"":""グリーンランド"",""nl"":""Groenland"",""pl"":""Grenlandia"",""pt"":""Gronelândia""}"
GD,12.262776,-61.604171,Grenada,,"{'fr': 'Grenade', 'ja': 'グレナダ', 'co': 'Granata', 'es': 'Granada', 'pt': 'Granada', 'ie': 'Greanáda'}","{""co"":""Granata"",""es"":""Granada"",""fr"":""Grenade"",""ie"":""Greanáda"",""ja"":""グレナダ"",""pt"":""Granada""}"
GP,16.08663,-61.422873,Guadeloupe,,"{'hu': 'Guadeloupe Guadeloupe', 'pl': 'Gwadelupa', 'ja': 'グアドループ', 'es': 'Guadalupe', 'pt': 'Guadalupe', 'co': 'Guadelupa', 'eu': 'Guadelupe', 'ie': 'Guadalúip'}","{""co"":""Guadelupa"",""es"":""Guadalupe"",""eu"":""Guadelupe"",""hu"":""Guadeloupe Guadeloupe"",""ie"":""Guadalúip"",""ja"":""グアドループ"",""pl"":""Gwadelupa"",""pt"":""Guadalupe""}"
GU,13.444304,144.793731,Guam,,"{'ja': 'グアム', 'ie': 'Guam'}","{""ie"":""Guam"",""ja"":""グアム""}"
GT,15.783471,-90.230759,Guatemala,,"{'pl': 'Gwatemala', 'ja': 'グアテマラ', 'ie': 'Guatamala'}","{""ie"":""Guatamala"",""ja"":""グアテマラ"",""pl"":""Gwatemala""}"
GG,49.465691,-2.585278,Bailiwick of Guernsey,,"{'fr': 'Bailliage de Guernesey', 'hu': 'Guernsey Bailiffség', 'ja': 'ガーンジー', 'de': 'Herrschaft Guernsey', 'es': 'Guernsey', 'nl': 'Baljuwschap Guernsey', 'pl': 'Okręg Guernsey', 'pt': 'Bailiado de Guernsey', 'co': 'Balianza di Guernsey', 'eu': 'Guernsey', 'ie': 'Geansaí'}","{""co"":""Balianza di Guernsey"",""de"":""Herrschaft Guernsey"",""es"":""Guernsey"",""eu"":""Guernsey"",""fr"":""Bailliage de Guernesey"",""hu"":""Guernsey Bailiffség"",""ie"":""Geansaí"",""ja"":""ガーンジー"",""nl"":""Baljuwschap Guernsey"",""pl"":""Okręg Guernsey"",""pt"":""Bailiado de Guernsey""}"
GN,9.945587,-9.696645,Guinea,,"{'fr': 'Guinée', 'es': 'Guinea', 'eu': 'Ginea', 'hu': 'Guinea', 'nl': 'Guinee', 'pl': 'Gwinea', 'pt': 'Guiné', 'de': 'Guinea', 'ja': 'ギニア', 'co': 'Ghjine', 'ie': 'An Ghuine'}","{""co"":""Ghjine"",""de"":""Guinea"",""es"":""Guinea"",""eu"":""Ginea"",""fr"":""Guinée"",""hu"":""Guinea"",""ie"":""An Ghuine"",""ja"":""ギニア"",""nl"":""Guinee"",""pl"":""Gwinea"",""pt"":""Guiné""}"
GW,11.803749,-15.180413,Guinea-Bissau,,"{'fr': 'Guinée-Bissau', 'es': 'Guinea-Bisáu', 'eu': 'Ginea-Bissau', 'hu': 'Bissau-Guinea', 'nl': 'Guinee-Bissau', 'pl': 'Gwinea Bissau', 'pt': 'Guiné-Bissau', 'de': 'Guinea-Bissau', 'ja': 'ギニアビサウ', 'co': 'Ghjine-Bissau', 'ie': 'An Ghuine-Bhissau'}","{""co"":""Ghjine-Bissau"",""de"":""Guinea-Bissau"",""es"":""Guinea-Bisáu"",""eu"":""Ginea-Bissau"",""fr"":""Guinée-Bissau"",""hu"":""Bissau-Guinea"",""ie"":""An Ghuine-Bhissau"",""ja"":""ギニアビサウ"",""nl"":""Guinee-Bissau"",""pl"":""Gwinea Bissau"",""pt"":""Guiné-Bissau""}"
GY,4.860416,-58.93018,Guyana,,"{'pl': 'Gujana', 'ja': 'ガイアナ', 'pt': 'Guiana', 'ie': 'An Ghuáin'}","{""ie"":""An Ghuáin"",""ja"":""ガイアナ"",""pl"":""Gujana"",""pt"":""Guiana""}"
HT,18.971187,-72.285215,Haiti,,"{'fr': 'Haïti', 'nl': 'Haïti', 'ja': 'ハイチ', 'es': 'Haití', 'ie': 'Háítí'}","{""es"":""Haití"",""fr"":""Haïti"",""ie"":""Háítí"",""ja"":""ハイチ"",""nl"":""Haïti""}"
HM,-53.08181,73.504158,Heard Island and McDonald Islands,,"{'fr': 'Îles Heard-et-MacDonald', 'hu': 'Heard-sziget és McDonald-szigetek', 'nl': 'Heard en McDonaldeilanden', 'pl': 'Wyspy Heard i McDonalda', 'de': 'Heard und McDonaldinseln', 'ja': 'ハード島とマクドナルド諸島', 'co': 'Isole Heard e McDonald', 'es': 'Islas Heard y McDonald', 'pt': 'Ilhas Heard e McDonald', 'eu': 'Heard eta McDonald Uharteak', 'ie': 'Oileán Heard agus Oileáin McDonald'}","{""co"":""Isole Heard e McDonald"",""de"":""Heard und McDonaldinseln"",""es"":""Islas Heard y McDonald"",""eu"":""Heard eta McDonald Uharteak"",""fr"":""Îles Heard-et-MacDonald"",""hu"":""Heard-sziget és McDonald-szigetek"",""ie"":""Oileán Heard agus Oileáin McDonald"",""ja"":""ハード島とマクドナルド諸島"",""nl"":""Heard en McDonaldeilanden"",""pl"":""Wyspy Heard i McDonalda"",""pt"":""Ilhas Heard e McDonald""}"
HN,15.199999,-86.241905,Honduras,,"{'ja': 'ホンジュラス', 'ie': 'Hondúras'}","{""ie"":""Hondúras"",""ja"":""ホンジュラス""}"
HK,22.396428,114.109497,Hong Kong,,"{'hu': 'Hongkong', 'nl': 'Hongkong', 'pl': 'Hongkong', 'de': 'Hongkong', 'ja': '香港', 'ie': 'Hong Cong'}","{""de"":""Hongkong"",""hu"":""Hongkong"",""ie"":""Hong Cong"",""ja"":""香港"",""nl"":""Hongkong"",""pl"":""Hongkong""}"
HU,47.162494,19.503304,Hungary,,"{'fr': 'Hongrie', 'hu': 'Magyarország', 'nl': 'Hongarije', 'pl': 'Węgry', 'de': 'Ungarn', 'ja': 'ハンガリー', 'co': 'Ungaria', 'es': 'Hungría', 'pt': 'Hungria', 'eu': 'Hungaria', 'ie': 'An Ungáir'}","{""co"":""Ungaria"",""de"":""Ungarn"",""es"":""Hungría"",""eu"":""Hungaria"",""fr"":""Hongrie"",""hu"":""Magyarország"",""ie"":""An Ungáir"",""ja"":""ハンガリー"",""nl"":""Hongarije"",""pl"":""Węgry"",""pt"":""Hungria""}"
IS,64.963051,-19.020835,Iceland,,"{'fr': 'Islande', 'hu': 'Izland', 'nl': 'IJsland', 'pl': 'Islandia', 'de': 'Island', 'ja': 'アイスランド', 'co': 'Island', 'es': 'Islandia', 'pt': 'Islândia', 'eu': 'Islandia', 'ie': 'An Íoslainn'}","{""co"":""Island"",""de"":""Island"",""es"":""Islandia"",""eu"":""Islandia"",""fr"":""Islande"",""hu"":""Izland"",""ie"":""An Íoslainn"",""ja"":""アイスランド"",""nl"":""IJsland"",""pl"":""Islandia"",""pt"":""Islândia""}"
IN,20.593684,78.96288,India,,"{'fr': 'Inde', 'es': 'India', 'eu': 'India', 'hu': 'India', 'nl': 'India', 'pl': 'Indie', 'pt': 'Índia', 'de': 'Indien', 'ja': 'インド', 'co': 'India', 'ie': 'An India'}","{""co"":""India"",""de"":""Indien"",""es"":""India"",""eu"":""India"",""fr"":""Inde"",""hu"":""India"",""ie"":""An India"",""ja"":""インド"",""nl"":""India"",""pl"":""Indie"",""pt"":""Índia""}"
ID,-0.789275,113.921327,Indonesia,,"{'fr': 'Indonésie', 'hu': 'Indonézia', 'nl': 'Indonesië', 'pl': 'Indonezja', 'de': 'Indonesien', 'ja': 'インドネシア', 'pt': 'Indonésia', 'co': 'Indunisia', 'ie': 'An Indinéis'}","{""co"":""Indunisia"",""de"":""Indonesien"",""fr"":""Indonésie"",""hu"":""Indonézia"",""ie"":""An Indinéis"",""ja"":""インドネシア"",""nl"":""Indonesië"",""pl"":""Indonezja"",""pt"":""Indonésia""}"
IR,32.427908,53.688046,Iran,,"{'hu': 'Irán', 'ja': 'イラン', 'co': 'Iranu', 'es': 'Irán', 'pt': 'Irã', 'ie': 'An Iaráin'}","{""co"":""Iranu"",""es"":""Irán"",""hu"":""Irán"",""ie"":""An Iaráin"",""ja"":""イラン"",""pt"":""Irã""}"
IQ,33.223191,43.679291,Iraq,,"{'hu': 'Irak', 'nl': 'Irak', 'pl': 'Irak', 'de': 'Irak', 'ja': 'イラク', 'fr': 'Irak', 'es': 'Irak', 'pt': 'Iraque', 'co': 'Irach', 'eu': 'Irak', 'ie': 'An Iaráic'}","{""co"":""Irach"",""de"":""Irak"",""es"":""Irak"",""eu"":""Irak"",""fr"":""Irak"",""hu"":""Irak"",""ie"":""An Iaráic"",""ja"":""イラク"",""nl"":""Irak"",""pl"":""Irak"",""pt"":""Iraque""}"
IE,53.41291,-8.24389,Ireland,,"{'fr': 'Irlande', 'hu': 'Írország', 'nl': 'Ierland', 'pl': 'Irlandia', 'de': 'Irland', 'ja': 'アイルランド', 'co': 'Irlanda', 'es': 'Irlanda', 'pt': 'Irlanda', 'eu': 'Irlandako Errepublika', 'ie': 'Éire'}","{""co"":""Irlanda"",""de"":""Irland"",""es"":""Irlanda"",""eu"":""Irlandako Errepublika"",""fr"":""Irlande"",""hu"":""Írország"",""ie"":""Éire"",""ja"":""アイルランド"",""nl"":""Ierland"",""pl"":""Irlandia"",""pt"":""Irlanda""}"
IM,54.236107,-4.548056,Isle of Man,,"{'fr': 'Île de Man', 'hu': 'Man', 'pl': 'Wyspa Man', 'ja': 'マン島', 'co': 'Ile di Man', 'es': 'Isla de Man', 'pt': 'Ilha de Man', 'eu': 'Man Uhartea', 'ie': 'Oileán Mhanann'}","{""co"":""Ile di Man"",""es"":""Isla de Man"",""eu"":""Man Uhartea"",""fr"":""Île de Man"",""hu"":""Man"",""ie"":""Oileán Mhanann"",""ja"":""マン島"",""pl"":""Wyspa Man"",""pt"":""Ilha de Man""}"
IL,31.046051,34.851612,Israel,,"{'fr': 'Israël', 'hu': 'Izrael', 'nl': 'Israël', 'pl': 'Izrael', 'ja': 'イスラエル', 'co': 'Israele', 'ie': 'Iosrael'}","{""co"":""Israele"",""fr"":""Israël"",""hu"":""Izrael"",""ie"":""Iosrael"",""ja"":""イスラエル"",""nl"":""Israël"",""pl"":""Izrael""}"
IT,41.87194,12.56738,Italy,,"{'fr': 'Italie', 'hu': 'Olaszország', 'nl': 'Italië', 'pl': 'Włochy', 'de': 'Italien', 'ja': 'イタリア', 'co': 'Italia', 'es': 'Italia', 'pt': 'Itália', 'eu': 'Italia', 'ie': 'An Iodáil'}","{""co"":""Italia"",""de"":""Italien"",""es"":""Italia"",""eu"":""Italia"",""fr"":""Italie"",""hu"":""Olaszország"",""ie"":""An Iodáil"",""ja"":""イタリア"",""nl"":""Italië"",""pl"":""Włochy"",""pt"":""Itália""}"
JM,18.109581,-77.297508,Jamaica,,"{'fr': 'Jamaïque', 'pl': 'Jamajka', 'de': 'Jamaika', 'ja': 'ジャマイカ', 'co': 'Giamaica', 'eu': 'Jamaika', 'ie': 'Iamáice'}","{""co"":""Giamaica"",""de"":""Jamaika"",""eu"":""Jamaika"",""fr"":""Jamaïque"",""ie"":""Iamáice"",""ja"":""ジャマイカ"",""pl"":""Jamajka""}"
JP,36.204824,138.252924,Japan,,"{'fr': 'Japon', 'hu': 'Japán', 'pl': 'Japonia', 'ja': '日本', 'co': 'Giappone', 'es': 'Japón', 'pt': 'Japão', 'eu': 'Japonia', 'ie': 'An tSeapáin'}","{""co"":""Giappone"",""es"":""Japón"",""eu"":""Japonia"",""fr"":""Japon"",""hu"":""Japán"",""ie"":""An tSeapáin"",""ja"":""日本"",""pl"":""Japonia"",""pt"":""Japão""}"
JE,49.214439,-2.13125,Jersey,,"{'hu': 'Jersey Bailiffség', 'ja': 'ジャージー', 'ie': 'Geansaí'}","{""hu"":""Jersey Bailiffség"",""ie"":""Geansaí"",""ja"":""ジャージー""}"
JO,30.585164,36.238414,Jordan,,"{'fr': 'Jordanie', 'hu': 'Jordánia', 'nl': 'Jordanië', 'pl': 'Jordania', 'de': 'Jordanien', 'ja': 'ヨルダン', 'co': 'Ghjordania', 'es': 'Jordania', 'pt': 'Jordânia', 'eu': 'Jordania', 'ie': 'An Iordáin'}","{""co"":""Ghjordania"",""de"":""Jordanien"",""es"":""Jordania"",""eu"":""Jordania"",""fr"":""Jordanie"",""hu"":""Jordánia"",""ie"":""An Iordáin"",""ja"":""ヨルダン"",""nl"":""Jordanië"",""pl"":""Jordania"",""pt"":""Jordânia""}"
KZ,48.019573,66.923684,Kazakhstan,,"{'hu': 'Kazahsztán', 'nl': 'Kazachstan', 'pl': 'Kazachstan', 'de': 'Kasachstan', 'ja': 'カザフスタン', 'es': 'Kazajistán', 'pt': 'Cazaquistão', 'co': 'Kazachstan', 'ie': 'An Chasacstáin'}","{""co"":""Kazachstan"",""de"":""Kasachstan"",""es"":""Kazajistán"",""hu"":""Kazahsztán"",""ie"":""An Chasacstáin"",""ja"":""カザフスタン"",""nl"":""Kazachstan"",""pl"":""Kazachstan"",""pt"":""Cazaquistão""}"
KE,-0.023559,37.906193,Kenya,,"{'nl': 'Kenia', 'pl': 'Kenia', 'de': 'Kenia', 'ja': 'ケニア', 'es': 'Kenia', 'pt': 'Quénia', 'ie': 'An Chéinia'}","{""de"":""Kenia"",""es"":""Kenia"",""ie"":""An Chéinia"",""ja"":""ケニア"",""nl"":""Kenia"",""pl"":""Kenia"",""pt"":""Quénia""}"
KI,-3.370417,-168.734039,Kiribati,,"{'ja': 'キリバス', 'ie': 'Ciribeas'}","{""ie"":""Ciribeas"",""ja"":""キリバス""}"
XK,42.602636,20.902977,Kosovo,,"{'hu': 'Koszovó', 'pl': 'Kosowo', 'ja': 'コソボ', 'co': 'Kosova', 'ie': 'An Chosaiv'}","{""co"":""Kosova"",""hu"":""Koszovó"",""ie"":""An Chosaiv"",""ja"":""コソボ"",""pl"":""Kosowo""}"
KW,29.31166,47.481766,Kuwait,,"{'fr': 'Koweït', 'hu': 'Kuvait', 'nl': 'Koeweit', 'pl': 'Kuwejt', 'ja': 'クウェート', 'ie': 'Cuáit'}","{""fr"":""Koweït"",""hu"":""Kuvait"",""ie"":""Cuáit"",""ja"":""クウェート"",""nl"":""Koeweit"",""pl"":""Kuwejt""}"
KG,41.20438,74.766098,Kyrgyzstan,,"{'fr': 'Kirghizistan', 'hu': 'Kirgizisztán', 'nl': 'Kirgizië', 'pl': 'Kirgistan', 'de': 'Kirgisistan', 'ja': 'キルギス', 'es': 'Kirguistán', 'pt': 'Quirguistão', 'co': 'Kirghisgia', 'eu': 'Kirgizistan', 'ie': 'An Chirgeastáin'}","{""co"":""Kirghisgia"",""de"":""Kirgisistan"",""es"":""Kirguistán"",""eu"":""Kirgizistan"",""fr"":""Kirghizistan"",""hu"":""Kirgizisztán"",""ie"":""An Chirgeastáin"",""ja"":""キルギス"",""nl"":""Kirgizië"",""pl"":""Kirgistan"",""pt"":""Quirguistão""}"
LA,19.85627,102.495496,Laos,,"{'hu': 'Laosz', 'ja': 'ラオス', 'co': 'Laos (Republica democratica pupulare)', 'ie': 'Laos'}","{""co"":""Laos (Republica democratica pupulare)"",""hu"":""Laosz"",""ie"":""Laos"",""ja"":""ラオス""}"
LV,56.879635,24.603189,Latvia,,"{'fr': 'Lettonie', 'hu': 'Lettország', 'nl': 'Letland', 'pl': 'Łotwa', 'de': 'Lettland', 'ja': 'ラトビア', 'co': 'Lettonia', 'es': 'Letonia', 'pt': 'Letónia', 'eu': 'Letonia', 'ie': 'An Laitvia'}","{""co"":""Lettonia"",""de"":""Lettland"",""es"":""Letonia"",""eu"":""Letonia"",""fr"":""Lettonie"",""hu"":""Lettország"",""ie"":""An Laitvia"",""ja"":""ラトビア"",""nl"":""Letland"",""pl"":""Łotwa"",""pt"":""Letónia""}"
LB,33.854721,35.862285,Lebanon,,"{'fr': 'Liban', 'hu': 'Libanon', 'nl': 'Libanon', 'pl': 'Liban', 'de': 'Libanon', 'ja': 'レバノン', 'co': 'Libanu', 'es': 'Líbano', 'pt': 'Líbano', 'eu': 'Libano', 'ie': 'An Liobáin'}","{""co"":""Libanu"",""de"":""Libanon"",""es"":""Líbano"",""eu"":""Libano"",""fr"":""Liban"",""hu"":""Libanon"",""ie"":""An Liobáin"",""ja"":""レバノン"",""nl"":""Libanon"",""pl"":""Liban"",""pt"":""Líbano""}"
LS,-29.609988,28.233608,Lesotho,,"{'ja': 'レソト', 'es': 'Lesoto', 'pt': 'Lesoto', 'co': 'Lesothu', 'ie': 'Leosóta'}","{""co"":""Lesothu"",""es"":""Lesoto"",""ie"":""Leosóta"",""ja"":""レソト"",""pt"":""Lesoto""}"
LR,6.428055,-9.429499,Liberia,,"{'fr': 'Libéria', 'hu': 'Libéria', 'ja': 'リベリア', 'pt': 'Libéria', 'ie': 'An Libéir'}","{""fr"":""Libéria"",""hu"":""Libéria"",""ie"":""An Libéir"",""ja"":""リベリア"",""pt"":""Libéria""}"
LY,26.3351,17.228331,Libya,,"{'fr': 'Libye', 'hu': 'Líbia', 'nl': 'Libië', 'pl': 'Libia', 'de': 'Libyen', 'ja': 'リビア', 'co': 'Libia', 'es': 'Libia', 'pt': 'Líbia', 'eu': 'Libia', 'ie': 'An Libia'}","{""co"":""Libia"",""de"":""Libyen"",""es"":""Libia"",""eu"":""Libia"",""fr"":""Libye"",""hu"":""Líbia"",""ie"":""An Libia"",""ja"":""リビア"",""nl"":""Libië"",""pl"":""Libia"",""pt"":""Líbia""}"
LI,47.166,9.555373,Liechtenstein,,"{'ja': 'リヒテンシュタイン', 'pt': 'Listenstaine', 'ie': 'Lichtinstéin'}","{""ie"":""Lichtinstéin"",""ja"":""リヒテンシュタイン"",""pt"":""Listenstaine""}"
LT,55.169438,23.881275,Lithuania,,"{'fr': 'Lituanie', 'hu': 'Litvánia', 'nl': 'Litouwen', 'pl': 'Litwa', 'de': 'Litauen', 'ja': 'リトアニア', 'co': 'Lituania', 'es': 'Lituania', 'pt': 'Lituânia', 'eu': 'Lituania', 'ie': 'An Liotuáin'}","{""co"":""Lituania"",""de"":""Litauen"",""es"":""Lituania"",""eu"":""Lituania"",""fr"":""Lituanie"",""hu"":""Litvánia"",""ie"":""An Liotuáin"",""ja"":""リトアニア"",""nl"":""Litouwen"",""pl"":""Litwa"",""pt"":""Lituânia""}"
LU,49.815273,6.129583,Luxembourg,,"{'hu': 'Luxemburg', 'nl': 'Luxemburg', 'pl': 'Luksemburg', 'de': 'Luxemburg', 'ja': 'ルクセンブルク', 'es': 'Luxemburgo', 'pt': 'Luxemburgo', 'co': 'Lussimburgu', 'eu': 'Luxenburgo', 'ie': 'Lucsamburg'}","{""co"":""Lussimburgu"",""de"":""Luxemburg"",""es"":""Luxemburgo"",""eu"":""Luxenburgo"",""hu"":""Luxemburg"",""ie"":""Lucsamburg"",""ja"":""ルクセンブルク"",""nl"":""Luxemburg"",""pl"":""Luksemburg"",""pt"":""Luxemburgo""}"
MO,22.198745,113.543873,Macau,,"{'hu': 'Makaó', 'nl': 'Macau', 'pl': 'Makau', 'de': 'Macau', 'ja': 'マカオ', 'pt': 'Macau', 'co': 'Macau', 'eu': 'Macau', 'fr': 'MACAO', 'es': 'MACAO', 'ie': 'Macáó'}","{""co"":""Macau"",""de"":""Macau"",""es"":""MACAO"",""eu"":""Macau"",""fr"":""MACAO"",""hu"":""Makaó"",""ie"":""Macáó"",""ja"":""マカオ"",""nl"":""Macau"",""pl"":""Makau"",""pt"":""Macau""}"
MG,-18.766947,46.869107,Madagascar,,"{'hu': 'Madagaszkár', 'nl': 'Madagaskar', 'pl': 'Madagaskar', 'de': 'Madagaskar', 'ja': 'マダガスカル', 'pt': 'Madagáscar', 'eu': 'Madagaskar', 'ie': 'Madagascar'}","{""de"":""Madagaskar"",""eu"":""Madagaskar"",""hu"":""Madagaszkár"",""ie"":""Madagascar"",""ja"":""マダガスカル"",""nl"":""Madagaskar"",""pl"":""Madagaskar"",""pt"":""Madagáscar""}"
MW,-13.254308,34.301525,Malawi,,"{'ja': 'マラウイ', 'es': 'Malaui', 'ie': 'An Mhaláiv'}","{""es"":""Malaui"",""ie"":""An Mhaláiv"",""ja"":""マラウイ""}"
MY,4.040255,109.091912,Malaysia,,"{'fr': 'Malaisie', 'hu': 'Malajzia', 'nl': 'Maleisië', 'pl': 'Malezja', 'ja': 'マレーシア', 'co': 'Malàisia', 'es': 'Malasia', 'pt': 'Malásia', 'ie': 'An Mhalaeisia'}","{""co"":""Malàisia"",""es"":""Malasia"",""fr"":""Malaisie"",""hu"":""Malajzia"",""ie"":""An Mhalaeisia"",""ja"":""マレーシア"",""nl"":""Maleisië"",""pl"":""Malezja"",""pt"":""Malásia""}"
MV,3.202778,73.22068,Maldives,,"{'hu': 'Maldív-szigetek', 'nl': 'Malediven', 'pl': 'Malediwy', 'de': 'Malediven', 'ja': 'モルディブ', 'co': 'Maldive', 'es': 'Maldivas', 'pt': 'Maldivas', 'eu': 'Maldivak', 'ie': 'Oileáin Mhaildíve'}","{""co"":""Maldive"",""de"":""Malediven"",""es"":""Maldivas"",""eu"":""Maldivak"",""hu"":""Maldív-szigetek"",""ie"":""Oileáin Mhaildíve"",""ja"":""モルディブ"",""nl"":""Malediven"",""pl"":""Malediwy"",""pt"":""Maldivas""}"
ML,17.570692,-3.996166,Mali,,"{'ja': 'マリ', 'es': 'Malí', 'ie': 'Mailí'}","{""es"":""Malí"",""ie"":""Mailí"",""ja"":""マリ""}"
MT,35.937496,14.375416,Malta,,"{'fr': 'Malte', 'hu': 'Málta', 'ja': 'マルタ', 'ie': 'Málta'}","{""fr"":""Malte"",""hu"":""Málta"",""ie"":""Málta"",""ja"":""マルタ""}"
MQ,14.641528,-61.024174,Martinique,,"{'hu': 'Martinique Martinique', 'pl': 'Martynika', 'ja': 'マルティニーク', 'co': 'Martinica', 'es': 'Martinica', 'pt': 'Martinica', 'eu': 'Martinika', 'ie': 'Martinique'}","{""co"":""Martinica"",""es"":""Martinica"",""eu"":""Martinika"",""hu"":""Martinique Martinique"",""ie"":""Martinique"",""ja"":""マルティニーク"",""pl"":""Martynika"",""pt"":""Martinica""}"
MR,21.00789,-10.940835,Mauritania,,"{'fr': 'Mauritanie', 'hu': 'Mauritánia', 'nl': 'Mauritanië', 'pl': 'Mauretania', 'de': 'Mauretanien', 'ja': 'モーリタニア', 'pt': 'Mauritânia', 'ie': 'An Mháratáin'}","{""de"":""Mauretanien"",""fr"":""Mauritanie"",""hu"":""Mauritánia"",""ie"":""An Mháratáin"",""ja"":""モーリタニア"",""nl"":""Mauritanië"",""pl"":""Mauretania"",""pt"":""Mauritânia""}"
MU,-20.348404,57.552152,Mauritius,,"{'fr': 'Maurice', 'es': 'Mauricio', 'eu': 'Maurizio', 'hu': 'Mauritius', 'nl': 'Mauritius', 'pl': 'Mauritius', 'pt': 'Maurícia', 'de': 'Mauritius', 'ja': 'モーリシャス', 'co': 'Mauritius', 'ie': 'Oileán Mhuirís'}","{""co"":""Mauritius"",""de"":""Mauritius"",""es"":""Mauricio"",""eu"":""Maurizio"",""fr"":""Maurice"",""hu"":""Mauritius"",""ie"":""Oileán Mhuirís"",""ja"":""モーリシャス"",""nl"":""Mauritius"",""pl"":""Mauritius"",""pt"":""Maurícia""}"
YT,-12.8275,45.166244,Mayotte,,"{'hu': 'Mayotte Mayotte', 'pl': 'Majotta', 'ja': 'マヨット', 'ie': 'Mayotte'}","{""hu"":""Mayotte Mayotte"",""ie"":""Mayotte"",""ja"":""マヨット"",""pl"":""Majotta""}"
MX,23.634501,-102.552784,Mexico,,"{'fr': 'Mexique', 'hu': 'Mexikó', 'pl': 'Meksyk', 'de': 'Mexiko', 'ja': 'メキシコ', 'co': 'Messicu', 'es': 'México', 'pt': 'México', 'eu': 'Mexiko', 'ie': 'Meicsiceo'}","{""co"":""Messicu"",""de"":""Mexiko"",""es"":""México"",""eu"":""Mexiko"",""fr"":""Mexique"",""hu"":""Mexikó"",""ie"":""Meicsiceo"",""ja"":""メキシコ"",""pl"":""Meksyk"",""pt"":""México""}"
FM,7.425554,150.550812,Federated States of Micronesia,,"{'fr': 'ÉTATS FÉDÉRÉS DE MICRONÉSIE', 'hu': 'MIKRONÉZIAI SZÖVETSÉGI ÁLLAMOK', 'nl': 'FEDERALE STATEN VAN MICRONESIË', 'pl': 'SFEDEROWANE STANY MIKRONEZJI', 'de': 'FÖDERIERTE STAATEN VON MIKRONESIEN', 'ja': 'ミクロネシア連邦', 'pt': 'ESTADOS FEDERADOS DA MICRONÉSIA', 'eu': 'MIKRONESIAKO ESTATU FEDERATUAK', 'es': 'ESTADOS FEDERADOS DE MICRONESIA', 'co': 'FEDERAZIONE DI I STATI MICRONESIANI', 'ie': 'An Mhicrinéis'}","{""co"":""FEDERAZIONE DI I STATI MICRONESIANI"",""de"":""FÖDERIERTE STAATEN VON MIKRONESIEN"",""es"":""ESTADOS FEDERADOS DE MICRONESIA"",""eu"":""MIKRONESIAKO ESTATU FEDERATUAK"",""fr"":""ÉTATS FÉDÉRÉS DE MICRONÉSIE"",""hu"":""MIKRONÉZIAI SZÖVETSÉGI ÁLLAMOK"",""ie"":""An Mhicrinéis"",""ja"":""ミクロネシア連邦"",""nl"":""FEDERALE STATEN VAN MICRONESIË"",""pl"":""SFEDEROWANE STANY MIKRONEZJI"",""pt"":""ESTADOS FEDERADOS DA MICRONÉSIA""}"
MD,47.411631,28.369885,Moldova,,"{'nl': 'Moldavië', 'pl': 'Mołdawia', 'de': 'Moldawien', 'ja': 'モルドバ', 'co': 'Moldavia', 'fr': 'Moldavie', 'es': 'Moldavia', 'pt': 'Moldávia', 'eu': 'Moldavia', 'ie': 'An Mholdóiv'}","{""co"":""Moldavia"",""de"":""Moldawien"",""es"":""Moldavia"",""eu"":""Moldavia"",""fr"":""Moldavie"",""ie"":""An Mholdóiv"",""ja"":""モルドバ"",""nl"":""Moldavië"",""pl"":""Mołdawia"",""pt"":""Moldávia""}"
MC,43.750298,7.412841,Monaco,,"{'pl': 'Monako', 'ja': 'モナコ', 'es': 'Mónaco', 'pt': 'Mónaco', 'eu': 'Monako', 'ie': 'Monacó'}","{""es"":""Mónaco"",""eu"":""Monako"",""ie"":""Monacó"",""ja"":""モナコ"",""pl"":""Monako"",""pt"":""Mónaco""}"
MN,46.862496,103.846656,Mongolia,,"{'fr': 'Mongolie', 'hu': 'Mongólia', 'nl': 'Mongolië', 'de': 'Mongolei', 'ja': 'モンゴル', 'co': 'Mongolie', 'pt': 'Mongólia', 'ie': 'An Mhongóil'}","{""co"":""Mongolie"",""de"":""Mongolei"",""fr"":""Mongolie"",""hu"":""Mongólia"",""ie"":""An Mhongóil"",""ja"":""モンゴル"",""nl"":""Mongolië"",""pt"":""Mongólia""}"
ME,42.708678,19.37439,Montenegro,,"{'fr': 'Monténégro', 'hu': 'Montenegró', 'pl': 'Czarnogóra', 'ja': 'モンテネグロ', 'co': 'Montenegru', 'ie': 'Montainéagró'}","{""co"":""Montenegru"",""fr"":""Monténégro"",""hu"":""Montenegró"",""ie"":""Montainéagró"",""ja"":""モンテネグロ"",""pl"":""Czarnogóra""}"
MS,16.742498,-62.187366,Montserrat,,"{'ja': 'モントセラト', 'ie': 'Montserrat'}","{""ie"":""Montserrat"",""ja"":""モントセラト""}"
MA,31.791702,-7.09262,Morocco,,"{'fr': 'Maroc', 'hu': 'Marokkó', 'nl': 'Marokko', 'pl': 'Maroko', 'de': 'Marokko', 'ja': 'モロッコ', 'co': 'Marocu', 'es': 'Marruecos', 'pt': 'Marrocos', 'eu': 'Maroko', 'ie': 'Maracó'}","{""co"":""Marocu"",""de"":""Marokko"",""es"":""Marruecos"",""eu"":""Maroko"",""fr"":""Maroc"",""hu"":""Marokkó"",""ie"":""Maracó"",""ja"":""モロッコ"",""nl"":""Marokko"",""pl"":""Maroko"",""pt"":""Marrocos""}"
MZ,-18.665695,35.529562,Mozambique,,"{'hu': 'Mozambik', 'pl': 'Mozambik', 'de': 'Mosambik', 'ja': 'モザンビーク', 'co': 'Mozambicu', 'pt': 'Moçambique', 'eu': 'Mozambike', 'ie': 'Mósaimbíc'}","{""co"":""Mozambicu"",""de"":""Mosambik"",""eu"":""Mozambike"",""hu"":""Mozambik"",""ie"":""Mósaimbíc"",""ja"":""モザンビーク"",""pl"":""Mozambik"",""pt"":""Moçambique""}"
MM,21.913965,95.956223,Myanmar,,"{'hu': 'Mianmar', 'nl': 'Myanmar (Birma)', 'pl': 'Mjanma', 'ja': 'ミャンマー', 'co': 'Myanmar (Birmania)', 'ie': 'Maenmar'}","{""co"":""Myanmar (Birmania)"",""hu"":""Mianmar"",""ie"":""Maenmar"",""ja"":""ミャンマー"",""nl"":""Myanmar (Birma)"",""pl"":""Mjanma""}"
NA,-22.95764,18.49041,Namibia,,"{'fr': 'Namibie', 'hu': 'Namíbia', 'nl': 'Namibië', 'ja': 'ナミビア', 'pt': 'Namíbia', 'ie': 'An Namaib'}","{""fr"":""Namibie"",""hu"":""Namíbia"",""ie"":""An Namaib"",""ja"":""ナミビア"",""nl"":""Namibië"",""pt"":""Namíbia""}"
NR,-0.522778,166.931503,Nauru,,"{'ja': 'ナウル', 'ie': 'Nárú'}","{""ie"":""Nárú"",""ja"":""ナウル""}"
NP,28.394857,84.124008,Nepal,,"{'fr': 'Népal', 'hu': 'Nepál', 'ja': 'ネパール', 'co': 'Nepale', 'ie': 'Neipeal'}","{""co"":""Nepale"",""fr"":""Népal"",""hu"":""Nepál"",""ie"":""Neipeal"",""ja"":""ネパール""}"
NL,52.132633,5.291266,Netherlands,,"{'fr': 'Pays-Bas', 'hu': 'Hollandia', 'nl': 'Nederland', 'pl': 'Holandia', 'de': 'Niederlande', 'ja': 'オランダ', 'co': 'Paesi Bassi', 'es': 'Países Bajos', 'pt': 'Países Baixos', 'eu': 'Herbehereak', 'ie': 'An Ísiltír'}","{""co"":""Paesi Bassi"",""de"":""Niederlande"",""es"":""Países Bajos"",""eu"":""Herbehereak"",""fr"":""Pays-Bas"",""hu"":""Hollandia"",""ie"":""An Ísiltír"",""ja"":""オランダ"",""nl"":""Nederland"",""pl"":""Holandia"",""pt"":""Países Baixos""}"
NC,-20.904305,165.618042,New Caledonia,,"{'fr': 'Nouvelle-Calédonie', 'hu': 'Új-Kaledónia', 'nl': 'Nieuw-Caledonië', 'pl': 'Nowa Kaledonia', 'de': 'Neukaledonien', 'ja': 'ニューカレドニア', 'co': 'Nova Calidonia', 'es': 'Nueva Caledonia', 'pt': 'Nova Caledônia', 'eu': 'Kaledonia Berria', 'ie': 'An Nua-Chaladóin'}","{""co"":""Nova Calidonia"",""de"":""Neukaledonien"",""es"":""Nueva Caledonia"",""eu"":""Kaledonia Berria"",""fr"":""Nouvelle-Calédonie"",""hu"":""Új-Kaledónia"",""ie"":""An Nua-Chaladóin"",""ja"":""ニューカレドニア"",""nl"":""Nieuw-Caledonië"",""pl"":""Nowa Kaledonia"",""pt"":""Nova Caledônia""}"
NZ,-40.900557,174.885971,New Zealand,,"{'fr': 'Nouvelle-Zélande', 'hu': 'Új-Zéland', 'nl': 'Nieuw-Zeeland', 'pl': 'Nowa Zelandia', 'de': 'Neuseeland', 'ja': 'ニュージーランド', 'co': 'Nova Zelanda', 'es': 'Nueva Zelanda', 'pt': 'Nova Zelândia', 'eu': 'Zeelanda Berria', 'ie': 'An Nua-Shéalainn'}","{""co"":""Nova Zelanda"",""de"":""Neuseeland"",""es"":""Nueva Zelanda"",""eu"":""Zeelanda Berria"",""fr"":""Nouvelle-Zélande"",""hu"":""Új-Zéland"",""ie"":""An Nua-Shéalainn"",""ja"":""ニュージーランド"",""nl"":""Nieuw-Zeeland"",""pl"":""Nowa Zelandia"",""pt"":""Nova Zelândia""}"
NI,12.865416,-85.207229,Nicaragua,,"{'pl': 'Nikaragua', 'ja': 'ニカラグア', 'pt': 'Nicarágua', 'eu': 'Nikaragua', 'ie': 'Nicearagua'}","{""eu"":""Nikaragua"",""ie"":""Nicearagua"",""ja"":""ニカラグア"",""pl"":""Nikaragua"",""pt"":""Nicarágua""}"
NE,17.607789,8.081666,Niger,,"{'ja': 'ニジェール', 'es': 'Níger', 'pt': 'Níger', 'ie': 'An Nígir'}","{""es"":""Níger"",""ie"":""An Nígir"",""ja"":""ニジェール"",""pt"":""Níger""}"
NG,9.081999,8.675277,Nigeria,,"{'fr': 'Nigéria', 'es': 'Nigeria', 'eu': 'Nigeria', 'hu': 'Nigéria', 'nl': 'Nigeria', 'pl': 'Nigeria', 'pt': 'Nigéria', 'de': 'Nigeria', 'ja': 'ナイジェリア', 'co': 'Nigeria', 'ie': 'An Nigéir'}","{""co"":""Nigeria"",""de"":""Nigeria"",""es"":""Nigeria"",""eu"":""Nigeria"",""fr"":""Nigéria"",""hu"":""Nigéria"",""ie"":""An Nigéir"",""ja"":""ナイジェリア"",""nl"":""Nigeria"",""pl"":""Nigeria"",""pt"":""Nigéria""}"
NU,-19.054445,-169.867233,Niue,,"{'ja': 'ニウエ', 'ie': 'Niue'}","{""ie"":""Niue"",""ja"":""ニウエ""}"
NF,-29.040835,167.954712,Norfolk Island,,"{'fr': 'Île Norfolk', 'hu': 'Norfolk-sziget', 'nl': 'Norfolk', 'pl': 'Wyspa Norfolk', 'de': 'Norfolk-Insel', 'ja': 'ノーフォーク島', 'co': 'Isula di Norfolk', 'es': 'Isla Norfolk', 'pt': 'Ilha Norfolk', 'eu': 'Norfolk uhartea', 'ie': 'Oileán Norfolk'}","{""co"":""Isula di Norfolk"",""de"":""Norfolk-Insel"",""es"":""Isla Norfolk"",""eu"":""Norfolk uhartea"",""fr"":""Île Norfolk"",""hu"":""Norfolk-sziget"",""ie"":""Oileán Norfolk"",""ja"":""ノーフォーク島"",""nl"":""Norfolk"",""pl"":""Wyspa Norfolk"",""pt"":""Ilha Norfolk""}"
KP,40.339852,127.510093,North Korea,,"{'fr': 'Corée du Nord', 'hu': 'Észak-Korea (Koreai NDK)', 'nl': 'Noord-Korea', 'pl': 'Korea Północna', 'de': 'Nordkorea', 'ja': '北朝鮮', 'co': 'Corea di u Nordu', 'es': 'Corea del Norte', 'pt': 'Coreia do Norte', 'eu': 'Ipar Korea', 'ie': 'An Chóiré Thuaidh'}","{""co"":""Corea di u Nordu"",""de"":""Nordkorea"",""es"":""Corea del Norte"",""eu"":""Ipar Korea"",""fr"":""Corée du Nord"",""hu"":""Észak-Korea (Koreai NDK)"",""ie"":""An Chóiré Thuaidh"",""ja"":""北朝鮮"",""nl"":""Noord-Korea"",""pl"":""Korea Północna"",""pt"":""Coreia do Norte""}"
MK,41.608635,21.745275,North Macedonia,,"{'fr': 'Macédoine du Nord', 'hu': 'Észak-Macedónia', 'nl': 'Noord-Macedonië', 'pl': 'Macedonia Północna', 'de': 'Nordmazedonien', 'ja': '北マケドニア', 'co': 'Macedonia di u Nordu', 'es': 'Macedonia del Norte', 'pt': 'Macedónia do Norte', 'eu': 'Ipar Mazedonia', 'ie': 'An Mhacadóin Thuaidh'}","{""co"":""Macedonia di u Nordu"",""de"":""Nordmazedonien"",""es"":""Macedonia del Norte"",""eu"":""Ipar Mazedonia"",""fr"":""Macédoine du Nord"",""hu"":""Észak-Macedónia"",""ie"":""An Mhacadóin Thuaidh"",""ja"":""北マケドニア"",""nl"":""Noord-Macedonië"",""pl"":""Macedonia Północna"",""pt"":""Macedónia do Norte""}"
MP,17.33083,145.38469,Northern Mariana Islands,,"{'fr': 'Îles Mariannes du Nord', 'hu': 'Északi-Mariana-szigetek', 'nl': 'Noordelijke Marianen', 'pl': 'MARIANY PÓŁNOCNE', 'de': 'Nördliche Marianen', 'ja': '北マリアナ諸島', 'co': 'Marianu du Nordu', 'es': 'Islas Marianas del Norte', 'pt': 'Ilhas Marianas Setentrionais', 'eu': 'Ipar Marianak', 'ie': 'Na hOileáin Mháirianacha Thuaidh'}","{""co"":""Marianu du Nordu"",""de"":""Nördliche Marianen"",""es"":""Islas Marianas del Norte"",""eu"":""Ipar Marianak"",""fr"":""Îles Mariannes du Nord"",""hu"":""Északi-Mariana-szigetek"",""ie"":""Na hOileáin Mháirianacha Thuaidh"",""ja"":""北マリアナ諸島"",""nl"":""Noordelijke Marianen"",""pl"":""MARIANY PÓŁNOCNE"",""pt"":""Ilhas Marianas Setentrionais""}"
NO,60.472024,8.468946,Norway,,"{'fr': 'Norvège', 'es': 'Noruega', 'eu': 'Norvegia', 'hu': 'Norvégia', 'nl': 'Noorwegen', 'pl': 'Norwegia', 'pt': 'Noruega', 'de': 'Norwegen', 'ja': 'ノルウェー', 'co': 'Norvegia', 'ie': 'An Iorua'}","{""co"":""Norvegia"",""de"":""Norwegen"",""es"":""Noruega"",""eu"":""Norvegia"",""fr"":""Norvège"",""hu"":""Norvégia"",""ie"":""An Iorua"",""ja"":""ノルウェー"",""nl"":""Noorwegen"",""pl"":""Norwegia"",""pt"":""Noruega""}"
OM,21.512583,55.923255,Oman,,"{'hu': 'Omán', 'ja': 'オマーン', 'es': 'Omán', 'pt': 'Omã', 'co': 'Omanu', 'ie': 'Óman'}","{""co"":""Omanu"",""es"":""Omán"",""hu"":""Omán"",""ie"":""Óman"",""ja"":""オマーン"",""pt"":""Omã""}"
PK,30.375321,69.345116,Pakistan,,"{'hu': 'Pakisztán', 'ja': 'パキスタン', 'es': 'Pakistán', 'pt': 'Paquistão', 'co': 'Pakistanu', 'ie': 'An Phacastáin'}","{""co"":""Pakistanu"",""es"":""Pakistán"",""hu"":""Pakisztán"",""ie"":""An Phacastáin"",""ja"":""パキスタン"",""pt"":""Paquistão""}"
PW,7.51498,134.58252,Palau,,"{'fr': 'Palaos', 'ja': 'パラオ', 'es': 'Palaos', 'ie': 'Palau'}","{""es"":""Palaos"",""fr"":""Palaos"",""ie"":""Palau"",""ja"":""パラオ""}"
PS,31.952162,35.233154,Palestine,,"{'hu': 'Palesztina', 'nl': 'Palestina', 'pl': 'Palestyna', 'de': 'Palästina', 'ja': 'パレスチナ', 'co': 'Palestina', 'es': 'Palestina', 'pt': 'Palestina', 'eu': 'Palestina', 'ie': 'An Phalaistín'}","{""co"":""Palestina"",""de"":""Palästina"",""es"":""Palestina"",""eu"":""Palestina"",""hu"":""Palesztina"",""ie"":""An Phalaistín"",""ja"":""パレスチナ"",""nl"":""Palestina"",""pl"":""Palestyna"",""pt"":""Palestina""}"
PA,8.537981,-80.782127,Panama,,"{'ja': 'パナマ', 'es': 'Panamá', 'pt': 'Panamá', 'ie': 'Panama'}","{""es"":""Panamá"",""ie"":""Panama"",""ja"":""パナマ"",""pt"":""Panamá""}"
PG,-6.314993,143.95555,Papua New Guinea,,"{'fr': 'Papouasie-Nouvelle-Guinée', 'hu': 'Pápua Új-Guinea', 'nl': 'Papoea-Nieuw-Guinea', 'pl': 'Papua-Nowa Gwinea', 'de': 'Papua-Neuguinea', 'ja': 'パプアニューギニア', 'co': 'Papua Nova Guinia', 'es': 'Papúa Nueva Guinea', 'pt': 'Papua-Nova Guiné', 'eu': 'Papua Ginea Berria', 'ie': 'Nua-Ghuine Phapua'}","{""co"":""Papua Nova Guinia"",""de"":""Papua-Neuguinea"",""es"":""Papúa Nueva Guinea"",""eu"":""Papua Ginea Berria"",""fr"":""Papouasie-Nouvelle-Guinée"",""hu"":""Pápua Új-Guinea"",""ie"":""Nua-Ghuine Phapua"",""ja"":""パプアニューギニア"",""nl"":""Papoea-Nieuw-Guinea"",""pl"":""Papua-Nowa Gwinea"",""pt"":""Papua-Nova Guiné""}"
PY,-23.442503,-58.443832,Paraguay,,"{'pl': 'Paragwaj', 'ja': 'パラグアイ', 'pt': 'Paraguai', 'co': 'Paraguaiu', 'eu': 'Paraguai', 'ie': 'Paragua'}","{""co"":""Paraguaiu"",""eu"":""Paraguai"",""ie"":""Paragua"",""ja"":""パラグアイ"",""pl"":""Paragwaj"",""pt"":""Paraguai""}"
PE,-9.189967,-75.015152,Peru,,"{'fr': 'Pérou', 'ja': 'ペルー', 'co': 'Perù', 'es': 'Perú', 'ie': 'Peiriú'}","{""co"":""Perù"",""es"":""Perú"",""fr"":""Pérou"",""ie"":""Peiriú"",""ja"":""ペルー""}"
PH,12.879721,121.774017,Philippines,,"{'hu': 'Fülöp-szigetek', 'nl': 'Filipijnen', 'pl': 'Filipiny', 'de': 'Philippinen', 'ja': 'フィリピン', 'co': 'Filippine', 'es': 'Filipinas', 'pt': 'Filipinas', 'eu': 'Filipinak', 'ie': 'Na hOileáin Fhilipíneacha'}","{""co"":""Filippine"",""de"":""Philippinen"",""es"":""Filipinas"",""eu"":""Filipinak"",""hu"":""Fülöp-szigetek"",""ie"":""Na hOileáin Fhilipíneacha"",""ja"":""フィリピン"",""nl"":""Filipijnen"",""pl"":""Filipiny"",""pt"":""Filipinas""}"
PN,-24.703615,-127.439308,Pitcairn Islands,,"{'fr': 'Îles Pitcairn', 'hu': 'Pitcairn-szigetek', 'nl': 'Pitcairneilanden', 'pl': 'Wyspy Pitcairn', 'de': 'Pitcairninseln', 'ja': 'ピトケアン諸島', 'co': 'Pitcairni', 'es': 'Islas Pitcairn', 'pt': 'Ilhas Pitcairn', 'eu': 'Pitcairnek', 'ie': 'Oileáin Pitcairn'}","{""co"":""Pitcairni"",""de"":""Pitcairninseln"",""es"":""Islas Pitcairn"",""eu"":""Pitcairnek"",""fr"":""Îles Pitcairn"",""hu"":""Pitcairn-szigetek"",""ie"":""Oileáin Pitcairn"",""ja"":""ピトケアン諸島"",""nl"":""Pitcairneilanden"",""pl"":""Wyspy Pitcairn"",""pt"":""Ilhas Pitcairn""}"
PL,51.919438,19.145136,Poland,,"{'fr': 'Pologne', 'hu': 'Lengyelország', 'nl': 'Polen', 'pl': 'Polska', 'de': 'Polen', 'ja': 'ポーランド', 'co': 'Polonia', 'es': 'Polonia', 'pt': 'Polónia', 'eu': 'Polonia', 'ie': 'An Pholainn'}","{""co"":""Polonia"",""de"":""Polen"",""es"":""Polonia"",""eu"":""Polonia"",""fr"":""Pologne"",""hu"":""Lengyelország"",""ie"":""An Pholainn"",""ja"":""ポーランド"",""nl"":""Polen"",""pl"":""Polska"",""pt"":""Polónia""}"
PT,39.399872,-8.224454,Portugal,,"{'hu': 'Portugália', 'pl': 'Portugalia', 'ja': 'ポルトガル', 'co': 'Portughal', 'ie': 'An Phortaingéil'}","{""co"":""Portughal"",""hu"":""Portugália"",""ie"":""An Phortaingéil"",""ja"":""ポルトガル"",""pl"":""Portugalia""}"
PR,18.220833,-66.590149,Puerto Rico,,"{'fr': 'Porto Rico', 'pl': 'Portoryko', 'ja': 'プエルトリコ', 'co': 'Puerto Ricu', 'pt': 'Porto Rico', 'ie': 'Portó Ríce'}","{""co"":""Puerto Ricu"",""fr"":""Porto Rico"",""ie"":""Portó Ríce"",""ja"":""プエルトリコ"",""pl"":""Portoryko"",""pt"":""Porto Rico""}"
QA,25.354826,51.183884,Qatar,,"{'hu': 'Katar', 'pl': 'Katar', 'de': 'Katar', 'ja': 'カタール', 'es': 'Catar', 'pt': 'Catar', 'ie': 'Catar'}","{""de"":""Katar"",""es"":""Catar"",""hu"":""Katar"",""ie"":""Catar"",""ja"":""カタール"",""pl"":""Katar"",""pt"":""Catar""}"
RE,-21.115141,55.536384,Réunion,,"{'pl': 'Reunion', 'ja': 'レユニオン', 'co': 'Riunione', 'es': 'Reunión', 'pt': 'Reunião', 'ie': 'La Réunion'}","{""co"":""Riunione"",""es"":""Reunión"",""ie"":""La Réunion"",""ja"":""レユニオン"",""pl"":""Reunion"",""pt"":""Reunião""}"
RO,45.943161,24.96676,Romania,,"{'fr': 'Roumanie', 'hu': 'Románia', 'nl': 'Roemenië', 'pl': 'Rumunia', 'de': 'Rumänien', 'ja': 'ルーマニア', 'es': 'Rumanía', 'pt': 'Roménia', 'co': 'Rumania', 'eu': 'Errumania', 'ie': 'An Rómáin'}","{""co"":""Rumania"",""de"":""Rumänien"",""es"":""Rumanía"",""eu"":""Errumania"",""fr"":""Roumanie"",""hu"":""Románia"",""ie"":""An Rómáin"",""ja"":""ルーマニア"",""nl"":""Roemenië"",""pl"":""Rumunia"",""pt"":""Roménia""}"
RU,61.52401,105.318756,Russia,,"{'fr': 'Russie', 'hu': 'Oroszország', 'nl': 'Rusland', 'pl': 'Rosja', 'de': 'Russland', 'ja': 'ロシア', 'co': 'Russia, Federazione', 'es': 'Rusia', 'pt': 'Rússia', 'eu': 'Errusia', 'ie': 'An Rúis'}","{""co"":""Russia, Federazione"",""de"":""Russland"",""es"":""Rusia"",""eu"":""Errusia"",""fr"":""Russie"",""hu"":""Oroszország"",""ie"":""An Rúis"",""ja"":""ロシア"",""nl"":""Rusland"",""pl"":""Rosja"",""pt"":""Rússia""}"
RW,-1.940278,29.873888,Rwanda,,"{'hu': 'Ruanda', 'de': 'Ruanda', 'ja': 'ルワンダ', 'co': 'Ruanda', 'es': 'Ruanda', 'pt': 'Ruanda', 'eu': 'Ruanda', 'ie': 'Ruanda'}","{""co"":""Ruanda"",""de"":""Ruanda"",""es"":""Ruanda"",""eu"":""Ruanda"",""hu"":""Ruanda"",""ie"":""Ruanda"",""ja"":""ルワンダ"",""pt"":""Ruanda""}"
SH,-24.143474,-10.030696,"Saint Helena, Ascension and Tristan da Cunha",,"{'fr': 'Sainte-Hélène, Ascension et Tristan da Cunha', 'hu': 'Szent Ilona', 'nl': 'Sint-Helena, Ascension en Tristan da Cunha', 'pl': 'Święta Helena, Wyspa Wniebowstąpienia i Tristan da Cunha', 'de': 'St. Helena, Ascension und Tristan da Cunha', 'ja': 'セントヘレナ・アセンションおよびトリスタンダクーニャ', 'co': 'Santa Helena, Ascensione è Tristan da Cunha', 'es': 'Santa Elena, Ascensión y Tristán de Acuña', 'pt': 'Santa Helena, Ascensão e Tristão da Cunha', 'eu': 'Santa Elena, Ascension eta Tristan da Cunha', 'ie': 'San Héilin, Ascension agus Tristan da Cunha'}","{""co"":""Santa Helena, Ascensione è Tristan da Cunha"",""de"":""St. Helena, Ascension und Tristan da Cunha"",""es"":""Santa Elena, Ascensión y Tristán de Acuña"",""eu"":""Santa Elena, Ascension eta Tristan da Cunha"",""fr"":""Sainte-Hélène, Ascension et Tristan da Cunha"",""hu"":""Szent Ilona"",""ie"":""San Héilin, Ascension agus Tristan da Cunha"",""ja"":""セントヘレナ・アセンションおよびトリスタンダクーニャ"",""nl"":""Sint-Helena, Ascension en Tristan da Cunha"",""pl"":""Święta Helena, Wyspa Wniebowstąpienia i Tristan da Cunha"",""pt"":""Santa Helena, Ascensão e Tristão da Cunha""}"
KN,17.357822,-62.782998,Saint Kitts and Nevis,,"{'fr': 'Saint-Christophe-et-Niévès', 'hu': 'Saint Kitts és Nevis', 'nl': 'Saint Kitts en Nevis', 'pl': 'Saint Kitts i Nevis', 'de': 'St. Kitts und Nevis', 'ja': 'セントクリストファー・ネイビス', 'co': 'Santu Krisku eta Nevis', 'es': 'San Cristóbal y Nieves', 'pt': 'São Cristóvão e Nevis', 'eu': 'Saint Kitts eta Nevis', 'ie': 'San Críostóir agus Nimheas'}","{""co"":""Santu Krisku eta Nevis"",""de"":""St. Kitts und Nevis"",""es"":""San Cristóbal y Nieves"",""eu"":""Saint Kitts eta Nevis"",""fr"":""Saint-Christophe-et-Niévès"",""hu"":""Saint Kitts és Nevis"",""ie"":""San Críostóir agus Nimheas"",""ja"":""セントクリストファー・ネイビス"",""nl"":""Saint Kitts en Nevis"",""pl"":""Saint Kitts i Nevis"",""pt"":""São Cristóvão e Nevis""}"
LC,13.909444,-60.978893,Saint Lucia,,"{'fr': 'Sainte-Lucie', 'de': 'St. Lucia', 'ja': 'セントルシア', 'co': 'Santa Lucia', 'es': 'Santa Lucía', 'pt': 'Santa Lúcia', 'eu': 'Santa Luzia', 'ie': 'San Lúisia'}","{""co"":""Santa Lucia"",""de"":""St. Lucia"",""es"":""Santa Lucía"",""eu"":""Santa Luzia"",""fr"":""Sainte-Lucie"",""ie"":""San Lúisia"",""ja"":""セントルシア"",""pt"":""Santa Lúcia""}"
PM,46.941936,-56.27111,Saint Pierre and Miquelon,,"{'fr': 'Saint-Pierre-et-Miquelon', 'hu': 'Saint-Pierre és Miquelon Saint-Pierre és Miquelon', 'nl': 'Saint-Pierre en Miquelon', 'pl': 'Saint-Pierre i Miquelon', 'de': 'Saint-Pierre und Miquelon', 'ja': 'サンピエール・エ・ミクロン', 'co': 'San Pietru è Miquelonu', 'es': 'San Pedro y Miquelón', 'pt': 'São Pedro e Miquelão', 'eu': 'San Piarres eta Mikeloia', 'ie': 'Saint-Pierre agus Miquelon'}","{""co"":""San Pietru è Miquelonu"",""de"":""Saint-Pierre und Miquelon"",""es"":""San Pedro y Miquelón"",""eu"":""San Piarres eta Mikeloia"",""fr"":""Saint-Pierre-et-Miquelon"",""hu"":""Saint-Pierre és Miquelon Saint-Pierre és Miquelon"",""ie"":""Saint-Pierre agus Miquelon"",""ja"":""サンピエール・エ・ミクロン"",""nl"":""Saint-Pierre en Miquelon"",""pl"":""Saint-Pierre i Miquelon"",""pt"":""São Pedro e Miquelão""}"
VC,12.984305,-61.287228,Saint Vincent and the Grenadines,,"{'fr': 'Saint-Vincent-et-les Grenadines', 'hu': 'Saint Vincent és a Grenadine-szigetek', 'nl': 'Saint Vincent en de Grenadines', 'pl': 'Saint Vincent i Grenadyny', 'de': 'Saint Vincent und die Grenadinen', 'ja': 'セントビンセント・グレナディーン', 'co': 'San Vincente è e Grenadine', 'es': 'San Vicente y las Granadinas', 'pt': 'São Vicente e Granadinas', 'eu': 'Saint Vincent eta Grenadinak', 'ie': 'San Uinseann agus na Grenadines'}","{""co"":""San Vincente è e Grenadine"",""de"":""Saint Vincent und die Grenadinen"",""es"":""San Vicente y las Granadinas"",""eu"":""Saint Vincent eta Grenadinak"",""fr"":""Saint-Vincent-et-les Grenadines"",""hu"":""Saint Vincent és a Grenadine-szigetek"",""ie"":""San Uinseann agus na Grenadines"",""ja"":""セントビンセント・グレナディーン"",""nl"":""Saint Vincent en de Grenadines"",""pl"":""Saint Vincent i Grenadyny"",""pt"":""São Vicente e Granadinas""}"
WS,-13.759029,-172.104629,Samoa,,"{'hu': 'Szamoa', 'ja': 'サモア', 'ie': 'Samó'}","{""hu"":""Szamoa"",""ie"":""Samó"",""ja"":""サモア""}"
SM,43.94236,12.457777,San Marino,,"{'fr': 'Saint-Marin', 'ja': 'サンマリノ', 'pt': 'San Marinho', 'co': 'San Marinu', 'ie': 'San Mairíne'}","{""co"":""San Marinu"",""fr"":""Saint-Marin"",""ie"":""San Mairíne"",""ja"":""サンマリノ"",""pt"":""San Marinho""}"
ST,0.18636,6.613081,São Tomé and Príncipe,,"{'fr': 'Sao Tomé-et-Principe', 'hu': 'São Tomé és Príncipe', 'nl': 'São Tomé en Principe', 'pl': 'Wyspy Świętego Tomasza i Książęca', 'de': 'São Tomé und Príncipe', 'ja': 'サントメ・プリンシペ', 'co': 'San Tomè è Principe', 'es': 'Santo Tomé y Príncipe', 'pt': 'São Tomé e Príncipe', 'eu': 'Sao Tome eta Principe', 'ie': 'São Tomé agus Príncipe'}","{""co"":""San Tomè è Principe"",""de"":""São Tomé und Príncipe"",""es"":""Santo Tomé y Príncipe"",""eu"":""Sao Tome eta Principe"",""fr"":""Sao Tomé-et-Principe"",""hu"":""São Tomé és Príncipe"",""ie"":""São Tomé agus Príncipe"",""ja"":""サントメ・プリンシペ"",""nl"":""São Tomé en Principe"",""pl"":""Wyspy Świętego Tomasza i Książęca"",""pt"":""São Tomé e Príncipe""}"
SA,23.885942,45.079162,Saudi Arabia,,"{'fr': 'Arabie saoudite', 'hu': 'Szaúd-Arábia', 'nl': 'Saoedi-Arabië', 'pl': 'Arabia Saudyjska', 'de': 'Saudi-Arabien', 'ja': 'サウジアラビア', 'es': 'Arabia Saudita', 'pt': 'Arábia Saudita', 'co': 'Arabia Saudita', 'ie': 'An Araib Shádach'}","{""co"":""Arabia Saudita"",""de"":""Saudi-Arabien"",""es"":""Arabia Saudita"",""fr"":""Arabie saoudite"",""hu"":""Szaúd-Arábia"",""ie"":""An Araib Shádach"",""ja"":""サウジアラビア"",""nl"":""Saoedi-Arabië"",""pl"":""Arabia Saudyjska"",""pt"":""Arábia Saudita""}"
SN,14.497401,-14.452362,Senegal,,"{'fr': 'Sénégal', 'hu': 'Szenegál', 'ja': 'セネガル', 'ie': 'An tSeineagáil'}","{""fr"":""Sénégal"",""hu"":""Szenegál"",""ie"":""An tSeineagáil"",""ja"":""セネガル""}"
RS,44.016521,21.005859,Serbia,,"{'fr': 'Serbie', 'hu': 'Szerbia', 'nl': 'Servië', 'de': 'Serbien', 'ja': 'セルビア', 'pt': 'Sérvia', 'ie': 'An tSeirbia'}","{""de"":""Serbien"",""fr"":""Serbie"",""hu"":""Szerbia"",""ie"":""An tSeirbia"",""ja"":""セルビア"",""nl"":""Servië"",""pt"":""Sérvia""}"
SC,-4.679574,55.491977,Seychelles,,"{'hu': 'Seychelle-szigetek', 'nl': 'Seychellen', 'pl': 'Seszele', 'de': 'Seychellen', 'ja': 'セーシェル', 'pt': 'Seicheles', 'eu': 'Seychelleak', 'ie': 'Na Séiséil'}","{""de"":""Seychellen"",""eu"":""Seychelleak"",""hu"":""Seychelle-szigetek"",""ie"":""Na Séiséil"",""ja"":""セーシェル"",""nl"":""Seychellen"",""pl"":""Seszele"",""pt"":""Seicheles""}"
SL,8.460555,-11.779889,Sierra Leone,,"{'ja': 'シエラレオネ', 'es': 'Sierra Leona', 'pt': 'Serra Leoa', 'eu': 'Sierra Leoa', 'ie': 'Siarra Leon'}","{""es"":""Sierra Leona"",""eu"":""Sierra Leoa"",""ie"":""Siarra Leon"",""ja"":""シエラレオネ"",""pt"":""Serra Leoa""}"
SG,1.352083,103.819836,Singapore,,"{'fr': 'Singapour', 'es': 'Singapur', 'eu': 'Singapur', 'hu': 'Szingapúr', 'nl': 'Singapore', 'pl': 'Singapur', 'pt': 'Singapura', 'de': 'Singapur', 'ja': 'シンガポール', 'co': 'Singapura', 'ie': 'Singeapór'}","{""co"":""Singapura"",""de"":""Singapur"",""es"":""Singapur"",""eu"":""Singapur"",""fr"":""Singapour"",""hu"":""Szingapúr"",""ie"":""Singeapór"",""ja"":""シンガポール"",""nl"":""Singapore"",""pl"":""Singapur"",""pt"":""Singapura""}"
SK,48.669026,19.699024,Slovakia,,"{'fr': 'Slovaquie', 'hu': 'Szlovákia', 'nl': 'Slowakije', 'pl': 'Słowacja', 'de': 'Slowakei', 'ja': 'スロバキア', 'co': 'Slovacchia', 'es': 'Eslovaquia', 'pt': 'Eslováquia', 'eu': 'Eslovakia', 'ie': 'An tSlóvaic'}","{""co"":""Slovacchia"",""de"":""Slowakei"",""es"":""Eslovaquia"",""eu"":""Eslovakia"",""fr"":""Slovaquie"",""hu"":""Szlovákia"",""ie"":""An tSlóvaic"",""ja"":""スロバキア"",""nl"":""Slowakije"",""pl"":""Słowacja"",""pt"":""Eslováquia""}"
SI,46.151241,14.995463,Slovenia,,"{'fr': 'Slovénie', 'hu': 'Szlovénia', 'nl': 'Slovenië', 'pl': 'Słowenia', 'de': 'Slowenien', 'ja': 'スロベニア', 'es': 'Eslovenia', 'pt': 'Eslovênia', 'co': 'Sluvènia', 'eu': 'Eslovenia', 'ie': 'An tSlóivéin'}","{""co"":""Sluvènia"",""de"":""Slowenien"",""es"":""Eslovenia"",""eu"":""Eslovenia"",""fr"":""Slovénie"",""hu"":""Szlovénia"",""ie"":""An tSlóivéin"",""ja"":""スロベニア"",""nl"":""Slovenië"",""pl"":""Słowenia"",""pt"":""Eslovênia""}"
SB,-9.64571,160.156194,Solomon Islands,,"{'fr': 'Îles Salomon', 'hu': 'Salamon-szigetek', 'nl': 'Salomonseilanden', 'pl': 'Wyspy Salomona', 'de': 'Salomoneninseln', 'ja': 'ソロモン諸島', 'co': 'Isole Salomone', 'es': 'Islas Salomón', 'pt': 'Ilhas Salomão', 'eu': 'Salomon Uharteak', 'ie': 'Oileáin Sholaimh'}","{""co"":""Isole Salomone"",""de"":""Salomoneninseln"",""es"":""Islas Salomón"",""eu"":""Salomon Uharteak"",""fr"":""Îles Salomon"",""hu"":""Salamon-szigetek"",""ie"":""Oileáin Sholaimh"",""ja"":""ソロモン諸島"",""nl"":""Salomonseilanden"",""pl"":""Wyspy Salomona"",""pt"":""Ilhas Salomão""}"
SO,5.152149,46.199616,Somalia,,"{'fr': 'Somalie', 'es': 'Somalia', 'eu': 'Somalia', 'hu': 'Szomália', 'nl': 'Somalië', 'pl': 'Somalia', 'pt': 'Somália', 'de': 'Somalia', 'ja': 'ソマリア', 'co': 'Somalia', 'ie': 'An tSomáil'}","{""co"":""Somalia"",""de"":""Somalia"",""es"":""Somalia"",""eu"":""Somalia"",""fr"":""Somalie"",""hu"":""Szomália"",""ie"":""An tSomáil"",""ja"":""ソマリア"",""nl"":""Somalië"",""pl"":""Somalia"",""pt"":""Somália""}"
ZA,-30.559482,22.937506,South Africa,,"{'fr': 'Afrique du Sud', 'hu': 'Dél-afrikai Köztársaság', 'nl': 'Zuid-Afrika', 'pl': 'Południowa Afryka', 'de': 'Südafrika', 'ja': '南アフリカ', 'co': 'Africa di Sud', 'es': 'Sudáfrica', 'pt': 'África do Sul', 'eu': 'Hegoafrika', 'ie': 'An Afraic Theas'}","{""co"":""Africa di Sud"",""de"":""Südafrika"",""es"":""Sudáfrica"",""eu"":""Hegoafrika"",""fr"":""Afrique du Sud"",""hu"":""Dél-afrikai Köztársaság"",""ie"":""An Afraic Theas"",""ja"":""南アフリカ"",""nl"":""Zuid-Afrika"",""pl"":""Południowa Afryka"",""pt"":""África do Sul""}"
GS,-54.429579,-36.587909,South Georgia and the South Sandwich Islands,,"{'fr': 'Géorgie du Sud et les îles Sandwich du Sud', 'hu': 'Déli-Georgia és Déli-Sandwich-szigetek', 'nl': 'Zuid-Georgië en de Zuidelijke Sandwicheilanden', 'pl': 'Georgia Południowa i Sandwich Południowy', 'de': 'Südgeorgien und die Südlichen Sandwichinseln', 'ja': '南ジョージア島および南サンドウィッチ諸島', 'co': 'Sud-Giorgia è isule di Sandwitch', 'es': 'Islas Georgias del Sur y Sandwich del Sur', 'pt': 'Geórgia do Sul e Ilhas Sandwich do Sul', 'eu': 'Hegoaldeko Georgiak eta Hegoaldeko Sandwichak', 'ie': 'An tSeoirsia Theas agus Oileáin Sandwich Theas'}","{""co"":""Sud-Giorgia è isule di Sandwitch"",""de"":""Südgeorgien und die Südlichen Sandwichinseln"",""es"":""Islas Georgias del Sur y Sandwich del Sur"",""eu"":""Hegoaldeko Georgiak eta Hegoaldeko Sandwichak"",""fr"":""Géorgie du Sud et les îles Sandwich du Sud"",""hu"":""Déli-Georgia és Déli-Sandwich-szigetek"",""ie"":""An tSeoirsia Theas agus Oileáin Sandwich Theas"",""ja"":""南ジョージア島および南サンドウィッチ諸島"",""nl"":""Zuid-Georgië en de Zuidelijke Sandwicheilanden"",""pl"":""Georgia Południowa i Sandwich Południowy"",""pt"":""Geórgia do Sul e Ilhas Sandwich do Sul""}"
KR,35.907757,127.766922,South Korea,,"{'fr': 'Corée du Sud', 'hu': 'Dél-Korea (Koreai Köztársaság)', 'nl': 'Zuid-Korea', 'pl': 'Korea Południowa', 'de': 'Südkorea', 'ja': '韓国', 'co': 'Corea di Sud', 'es': 'Corea del Sur', 'pt': 'Coreia do Sul', 'eu': 'Hego Korea', 'ie': 'An Chóiré Theas'}","{""co"":""Corea di Sud"",""de"":""Südkorea"",""es"":""Corea del Sur"",""eu"":""Hego Korea"",""fr"":""Corée du Sud"",""hu"":""Dél-Korea (Koreai Köztársaság)"",""ie"":""An Chóiré Theas"",""ja"":""韓国"",""nl"":""Zuid-Korea"",""pl"":""Korea Południowa"",""pt"":""Coreia do Sul""}"
SS,6.85065,30.659016,South Sudan,,"{'fr': 'Soudan du Sud', 'hu': 'Dél-Szudán', 'nl': 'Zuid-Soedan', 'pl': 'Sudan Południowy', 'de': 'Südsudan', 'ja': '南スーダン', 'co': 'Sud di Sur', 'es': 'Sudán del Sur', 'pt': 'Sudão do Sul', 'eu': 'Hego Sudán', 'ie': 'An tSúdáin Theas'}","{""co"":""Sud di Sur"",""de"":""Südsudan"",""es"":""Sudán del Sur"",""eu"":""Hego Sudán"",""fr"":""Soudan du Sud"",""hu"":""Dél-Szudán"",""ie"":""An tSúdáin Theas"",""ja"":""南スーダン"",""nl"":""Zuid-Soedan"",""pl"":""Sudan Południowy"",""pt"":""Sudão do Sul""}"
ES,40.463667,-3.74922,Spain,,"{'fr': 'Espagne', 'hu': 'Spanyolország', 'nl': 'Spanje', 'pl': 'Hiszpania', 'de': 'Spanien', 'ja': 'スペイン', 'co': 'Spagna', 'eu': 'Espainia', 'pt': 'Espanha', 'es': 'España', 'ie': 'An Spáinn'}","{""co"":""Spagna"",""de"":""Spanien"",""es"":""España"",""eu"":""Espainia"",""fr"":""Espagne"",""hu"":""Spanyolország"",""ie"":""An Spáinn"",""ja"":""スペイン"",""nl"":""Spanje"",""pl"":""Hiszpania"",""pt"":""Espanha""}"
LK,7.873054,80.771797,Sri Lanka,,"{'hu': 'Srí Lanka', 'ja': 'スリランカ', 'ie': 'Srí Lanca'}","{""hu"":""Srí Lanka"",""ie"":""Srí Lanca"",""ja"":""スリランカ""}"
SD,15.8905231,30.7671933,Sudan,,"{'fr': 'Soudan', 'hu': 'Szudán', 'nl': 'Soedan', 'ja': 'スーダン', 'es': 'Sudán', 'pt': 'Sudão', 'ie': 'An tSúdáin'}","{""es"":""Sudán"",""fr"":""Soudan"",""hu"":""Szudán"",""ie"":""An tSúdáin"",""ja"":""スーダン"",""nl"":""Soedan"",""pt"":""Sudão""}"
SR,3.919305,-56.027783,Suriname,,"{'pl': 'Surinam', 'ja': 'スリナム', 'es': 'Surinam', 'co': 'Surinami', 'eu': 'Surinam', 'ie': 'Suranam'}","{""co"":""Surinami"",""es"":""Surinam"",""eu"":""Surinam"",""ie"":""Suranam"",""ja"":""スリナム"",""pl"":""Surinam""}"
SJ,77.553604,23.670272,Svalbard and Jan Mayen,,"{'fr': 'Svalbard et Jan Mayen', 'hu': 'Norvégia Spitzbergák és Jan Mayen-sziget', 'nl': 'Spitsbergen en Jan Mayen', 'pl': 'Svalbard i Jan Mayen', 'de': 'Spitzbergen und Jan Mayen', 'ja': 'スヴァールバル諸島とヤンマイエン', 'co': 'Svalbard è Jan Mayen', 'es': 'Svalbard y Jan Mayen', 'pt': 'Svalbard e Jan Mayen', 'eu': 'Svalbard eta Jan Mayen', 'ie': 'Svalbard agus Jan Mayen'}","{""co"":""Svalbard è Jan Mayen"",""de"":""Spitzbergen und Jan Mayen"",""es"":""Svalbard y Jan Mayen"",""eu"":""Svalbard eta Jan Mayen"",""fr"":""Svalbard et Jan Mayen"",""hu"":""Norvégia Spitzbergák és Jan Mayen-sziget"",""ie"":""Svalbard agus Jan Mayen"",""ja"":""スヴァールバル諸島とヤンマイエン"",""nl"":""Spitsbergen en Jan Mayen"",""pl"":""Svalbard i Jan Mayen"",""pt"":""Svalbard e Jan Mayen""}"
SE,60.128161,18.643501,Sweden,,"{'fr': 'Suède', 'hu': 'Svédország', 'nl': 'Zweden', 'pl': 'Szwecja', 'de': 'Schweden', 'ja': 'スウェーデン', 'co': 'Svezia', 'es': 'Suecia', 'pt': 'Suécia', 'eu': 'Suedia', 'ie': 'An tSualainn'}","{""co"":""Svezia"",""de"":""Schweden"",""es"":""Suecia"",""eu"":""Suedia"",""fr"":""Suède"",""hu"":""Svédország"",""ie"":""An tSualainn"",""ja"":""スウェーデン"",""nl"":""Zweden"",""pl"":""Szwecja"",""pt"":""Suécia""}"
CH,46.818188,8.227512,Switzerland,,"{'fr': 'Suisse', 'hu': 'Svájc', 'nl': 'Zwitserland', 'pl': 'Szwajcaria', 'de': 'Schweiz', 'ja': 'スイス', 'co': 'Svizzera', 'es': 'Suiza', 'pt': 'Suíça', 'eu': 'Suitza', 'ie': 'An Eilvéis'}","{""co"":""Svizzera"",""de"":""Schweiz"",""es"":""Suiza"",""eu"":""Suitza"",""fr"":""Suisse"",""hu"":""Svájc"",""ie"":""An Eilvéis"",""ja"":""スイス"",""nl"":""Zwitserland"",""pl"":""Szwajcaria"",""pt"":""Suíça""}"
SY,34.802075,38.996815,Syria,,"{'fr': 'Syrie', 'hu': 'Szíria', 'nl': 'Syrië', 'de': 'Syrien', 'ja': 'シリア', 'co': 'Siria', 'es': 'Siria', 'pt': 'Síria', 'eu': 'Siria', 'ie': 'An tSiria'}","{""co"":""Siria"",""de"":""Syrien"",""es"":""Siria"",""eu"":""Siria"",""fr"":""Syrie"",""hu"":""Szíria"",""ie"":""An tSiria"",""ja"":""シリア"",""nl"":""Syrië"",""pt"":""Síria""}"
TW,23.69781,120.960515,Taiwan,,"{'fr': 'Taïwan', 'hu': 'Tajvan', 'pl': 'Tajwan', 'ja': '台湾', 'es': 'Taiwán', 'ie': 'An Téaváin'}","{""es"":""Taiwán"",""fr"":""Taïwan"",""hu"":""Tajvan"",""ie"":""An Téaváin"",""ja"":""台湾"",""pl"":""Tajwan""}"
TJ,38.861034,71.276093,Tajikistan,,"{'fr': 'Tadjikistan', 'hu': 'Tádzsikisztán', 'nl': 'Tadzjikistan', 'pl': 'Tadżykistan', 'de': 'Tadschikistan', 'ja': 'タジキスタン', 'es': 'Tayikistán', 'pt': 'Tajiquistão', 'co': 'Tadjikistan', 'ie': 'An Táidsíceastáin'}","{""co"":""Tadjikistan"",""de"":""Tadschikistan"",""es"":""Tayikistán"",""fr"":""Tadjikistan"",""hu"":""Tádzsikisztán"",""ie"":""An Táidsíceastáin"",""ja"":""タジキスタン"",""nl"":""Tadzjikistan"",""pl"":""Tadżykistan"",""pt"":""Tajiquistão""}"
TZ,-6.369028,34.888822,Tanzania,,"{'fr': 'Tanzanie', 'hu': 'Tanzánia', 'de': 'Tansania', 'ja': 'タンザニア', 'co': 'Tanzania, Republica unita di', 'pt': 'Tanzânia', 'ie': 'An Tansáin'}","{""co"":""Tanzania, Republica unita di"",""de"":""Tansania"",""fr"":""Tanzanie"",""hu"":""Tanzánia"",""ie"":""An Tansáin"",""ja"":""タンザニア"",""pt"":""Tanzânia""}"
TH,15.870032,100.992541,Thailand,,"{'fr': 'Thaïlande', 'es': 'Tailandia', 'eu': 'Thailandia', 'hu': 'Thaiföld', 'nl': 'Thailand', 'pl': 'Tajlandia', 'pt': 'Tailândia', 'de': 'Thailand', 'ja': 'タイ', 'co': 'Thailandu', 'ie': 'An Téalainn'}","{""co"":""Thailandu"",""de"":""Thailand"",""es"":""Tailandia"",""eu"":""Thailandia"",""fr"":""Thaïlande"",""hu"":""Thaiföld"",""ie"":""An Téalainn"",""ja"":""タイ"",""nl"":""Thailand"",""pl"":""Tajlandia"",""pt"":""Tailândia""}"
TL,-8.874217,125.727539,Timor-Leste,,"{'hu': 'Kelet-Timor', 'nl': 'Oost-Timor', 'pl': 'Timor Wschodni', 'de': 'Osttimor', 'ja': '東ティモール', 'co': 'Timor orientale', 'fr': 'Timor oriental', 'es': 'Timor Oriental', 'eu': 'Ekialdeko Timor', 'ie': 'Tíomór Thoir'}","{""co"":""Timor orientale"",""de"":""Osttimor"",""es"":""Timor Oriental"",""eu"":""Ekialdeko Timor"",""fr"":""Timor oriental"",""hu"":""Kelet-Timor"",""ie"":""Tíomór Thoir"",""ja"":""東ティモール"",""nl"":""Oost-Timor"",""pl"":""Timor Wschodni""}"
TG,8.619543,0.824782,Togo,,"{'ja': 'トーゴ', 'ie': 'Tóga'}","{""ie"":""Tóga"",""ja"":""トーゴ""}"
TK,-8.967363,-171.855881,Tokelau,,"{'hu': 'Tokelau-szigetek', 'ja': 'トケラウ', 'ie': 'Tócalá'}","{""hu"":""Tokelau-szigetek"",""ie"":""Tócalá"",""ja"":""トケラウ""}"
TO,-21.178986,-175.198242,Tonga,,"{'ja': 'トンガ', 'ie': 'Tonga'}","{""ie"":""Tonga"",""ja"":""トンガ""}"
TT,10.691803,-61.222503,Trinidad and Tobago,,"{'fr': 'Trinité-et-Tobago', 'hu': 'Trinidad és Tobago', 'nl': 'Trinidad en Tobago', 'pl': 'Trynidad i Tobago', 'de': 'Trinidad und Tobago', 'ja': 'トリニダード・トバゴ', 'es': 'Trinidad y Tobago', 'pt': 'Trinidad e Tobago', 'co': 'Trinitate eta Tobago', 'eu': 'Trinidad eta Tobago', 'ie': 'Oileán na Tríonóide agus Tobága'}","{""co"":""Trinitate eta Tobago"",""de"":""Trinidad und Tobago"",""es"":""Trinidad y Tobago"",""eu"":""Trinidad eta Tobago"",""fr"":""Trinité-et-Tobago"",""hu"":""Trinidad és Tobago"",""ie"":""Oileán na Tríonóide agus Tobága"",""ja"":""トリニダード・トバゴ"",""nl"":""Trinidad en Tobago"",""pl"":""Trynidad i Tobago"",""pt"":""Trinidad e Tobago""}"
TN,33.886917,9.537499,Tunisia,,"{'fr': 'Tunisie', 'hu': 'Tunézia', 'nl': 'Tunesië', 'pl': 'Tunezja', 'de': 'Tunesien', 'ja': 'チュニジア', 'es': 'Túnez', 'pt': 'Tunísia', 'ie': 'An Túinéis'}","{""de"":""Tunesien"",""es"":""Túnez"",""fr"":""Tunisie"",""hu"":""Tunézia"",""ie"":""An Túinéis"",""ja"":""チュニジア"",""nl"":""Tunesië"",""pl"":""Tunezja"",""pt"":""Tunísia""}"
TR,38.963745,35.243322,Türkiye,,"{'fr': 'Turquie', 'hu': 'Törökország', 'nl': 'Turkije', 'pl': 'Turcja', 'de': 'Türkei', 'ja': 'トルコ', 'co': 'Turchia', 'es': 'Turquía', 'pt': 'Turquia', 'eu': 'Turkia', 'ie': 'An Tuirc'}","{""co"":""Turchia"",""de"":""Türkei"",""es"":""Turquía"",""eu"":""Turkia"",""fr"":""Turquie"",""hu"":""Törökország"",""ie"":""An Tuirc"",""ja"":""トルコ"",""nl"":""Turkije"",""pl"":""Turcja"",""pt"":""Turquia""}"
TM,38.969719,59.556278,Turkmenistan,,"{'fr': 'Turkménistan', 'hu': 'Türkmenisztán', 'ja': 'トルクメニスタン', 'es': 'Turkmenistán', 'pt': 'Turquemenistão', 'co': 'Turkmenistanu', 'ie': 'An Tuircméanastáin'}","{""co"":""Turkmenistanu"",""es"":""Turkmenistán"",""fr"":""Turkménistan"",""hu"":""Türkmenisztán"",""ie"":""An Tuircméanastáin"",""ja"":""トルクメニスタン"",""pt"":""Turquemenistão""}"
TC,21.694025,-71.797928,Turks and Caicos Islands,,"{'fr': 'Îles Turques-et-Caïques', 'es': 'Islas Turcas y Caicos', 'eu': 'Turks eta Caicos Uharteak', 'hu': 'Turks- és Caicos-szigetek', 'nl': 'Turks- en Caicoseilanden', 'pl': 'Turks i Caicos', 'pt': 'Ilhas Turks e Caicos', 'de': 'Turks- und Caicosinseln', 'ja': 'タークス・カイコス諸島', 'co': 'Turchini è Caiques', 'ie': 'Oileáin na dTurcach agus Caicos'}","{""co"":""Turchini è Caiques"",""de"":""Turks- und Caicosinseln"",""es"":""Islas Turcas y Caicos"",""eu"":""Turks eta Caicos Uharteak"",""fr"":""Îles Turques-et-Caïques"",""hu"":""Turks- és Caicos-szigetek"",""ie"":""Oileáin na dTurcach agus Caicos"",""ja"":""タークス・カイコス諸島"",""nl"":""Turks- en Caicoseilanden"",""pl"":""Turks i Caicos"",""pt"":""Ilhas Turks e Caicos""}"
TV,-7.109535,177.64933,Tuvalu,,"{'ja': 'ツバル', 'ie': 'Tuvalu'}","{""ie"":""Tuvalu"",""ja"":""ツバル""}"
VI,18.335765,-64.896335,U.S. Virgin Islands,,"{'fr': 'Îles Vierges des États-Unis', 'hu': 'Amerikai Virgin-szigetek', 'nl': 'Amerikaanse Maagdeneilanden', 'pl': 'Wyspy Dziewicze Stanów Zjednoczonych', 'de': 'Amerikanische Jungferninseln', 'ja': 'アメリカ領ヴァージン諸島', 'co': 'Isule Vergine Americane', 'es': 'Islas Vírgenes de los Estados Unidos', 'pt': 'Ilhas Virgens dos Estados Unidos', 'eu': 'Birjina uharte amerikarrak', 'ie': 'Oileáin na Maighdean S.A.M.'}","{""co"":""Isule Vergine Americane"",""de"":""Amerikanische Jungferninseln"",""es"":""Islas Vírgenes de los Estados Unidos"",""eu"":""Birjina uharte amerikarrak"",""fr"":""Îles Vierges des États-Unis"",""hu"":""Amerikai Virgin-szigetek"",""ie"":""Oileáin na Maighdean S.A.M."",""ja"":""アメリカ領ヴァージン諸島"",""nl"":""Amerikaanse Maagdeneilanden"",""pl"":""Wyspy Dziewicze Stanów Zjednoczonych"",""pt"":""Ilhas Virgens dos Estados Unidos""}"
UG,1.373333,32.290275,Uganda,,"{'fr': 'Ouganda', 'nl': 'Oeganda', 'ja': 'ウガンダ', 'ie': 'Uganda'}","{""fr"":""Ouganda"",""ie"":""Uganda"",""ja"":""ウガンダ"",""nl"":""Oeganda""}"
UA,48.379433,31.16558,Ukraine,,"{'hu': 'Ukrajna', 'nl': 'Oekraïne', 'pl': 'Ukraina', 'ja': 'ウクライナ', 'co': 'Ukraina', 'es': 'Ucrania', 'pt': 'Ucrânia', 'eu': 'Ukraina', 'ie': 'An Úcráin'}","{""co"":""Ukraina"",""es"":""Ucrania"",""eu"":""Ukraina"",""hu"":""Ukrajna"",""ie"":""An Úcráin"",""ja"":""ウクライナ"",""nl"":""Oekraïne"",""pl"":""Ukraina"",""pt"":""Ucrânia""}"
AE,23.424076,53.847818,United Arab Emirates,,"{'fr': 'Émirats arabes unis', 'hu': 'Egyesült Arab Emírségek', 'nl': 'Verenigde Arabische Emiraten', 'pl': 'Zjednoczone Emiraty Arabskie', 'de': 'Vereinigte Arabische Emirate', 'ja': 'アラブ首長国連邦', 'co': 'Emirati Arabbi Uniti', 'es': 'Emiratos Árabes Unidos', 'pt': 'Emirados Árabes Unidos', 'eu': 'Arabiar Emirerri Batuak', 'ie': 'Aontas na nÉimíríochtaí Arabacha'}","{""co"":""Emirati Arabbi Uniti"",""de"":""Vereinigte Arabische Emirate"",""es"":""Emiratos Árabes Unidos"",""eu"":""Arabiar Emirerri Batuak"",""fr"":""Émirats arabes unis"",""hu"":""Egyesült Arab Emírségek"",""ie"":""Aontas na nÉimíríochtaí Arabacha"",""ja"":""アラブ首長国連邦"",""nl"":""Verenigde Arabische Emiraten"",""pl"":""Zjednoczone Emiraty Arabskie"",""pt"":""Emirados Árabes Unidos""}"
GB,55.378051,-3.435973,United Kingdom,,"{'fr': 'Royaume-Uni', 'hu': 'Egyesült Királyság', 'nl': 'Verenigd Koninkrijk', 'pl': 'Wielka Brytania', 'de': 'Vereinigtes Königreich', 'ja': 'イギリス', 'co': 'Regnu Unitu', 'es': 'Reino Unido', 'pt': 'Reino Unido', 'eu': 'Erresuma Batua', 'ie': 'An Ríocht Aontaithe'}","{""co"":""Regnu Unitu"",""de"":""Vereinigtes Königreich"",""es"":""Reino Unido"",""eu"":""Erresuma Batua"",""fr"":""Royaume-Uni"",""hu"":""Egyesült Királyság"",""ie"":""An Ríocht Aontaithe"",""ja"":""イギリス"",""nl"":""Verenigd Koninkrijk"",""pl"":""Wielka Brytania"",""pt"":""Reino Unido""}"
US,37.09024,-95.712891,United States of America,,"{'fr': ""ÉTATS-UNIS D'AMÉRIQUE"", 'hu': 'Amerikai Egyesült Államok', 'nl': 'VERENIGDE STATEN VAN AMERIKA', 'pl': 'STANY ZJEDNOCZONE AMERYKI', 'de': 'VEREINIGTEN STAATEN VON AMERIKA', 'ja': 'アメリカ合衆国', 'co': ""STATI UNITI D'AMERICA"", 'es': 'ESTADOS UNIDOS DE AMÉRICA', 'pt': 'Estados Unidos da América', 'eu': 'Ameriketako Estatu Batuak', 'ie': 'Stáit Aontaithe Mheiriceá'}","{""co"":""STATI UNITI D'AMERICA"",""de"":""VEREINIGTEN STAATEN VON AMERIKA"",""es"":""ESTADOS UNIDOS DE AMÉRICA"",""eu"":""Ameriketako Estatu Batuak"",""fr"":""ÉTATS-UNIS D'AMÉRIQUE"",""hu"":""Amerikai Egyesült Államok"",""ie"":""Stáit Aontaithe Mheiriceá"",""ja"":""アメリカ合衆国"",""nl"":""VERENIGDE STATEN VAN AMERIKA"",""pl"":""STANY ZJEDNOCZONE AMERYKI"",""pt"":""Estados Unidos da América""}"
UY,-32.522779,-55.765835,Uruguay,,"{'pl': 'Urugwaj', 'ja': 'ウルグアイ', 'pt': 'Uruguai', 'co': 'Uruguaiana', 'eu': 'Uruguai', 'ie': 'Uraiguá'}","{""co"":""Uruguaiana"",""eu"":""Uruguai"",""ie"":""Uraiguá"",""ja"":""ウルグアイ"",""pl"":""Urugwaj"",""pt"":""Uruguai""}"
UZ,41.377491,64.585262,Uzbekistan,,"{'fr': 'Ouzbékistan', 'hu': 'Üzbegisztán', 'nl': 'Oezbekistan', 'de': 'Usbekistan', 'ja': 'ウズベキスタン', 'es': 'Uzbekistán', 'pt': 'Uzbequistão', 'co': 'Uzbekistanu', 'ie': 'Úisbéiceastáin'}","{""co"":""Uzbekistanu"",""de"":""Usbekistan"",""es"":""Uzbekistán"",""fr"":""Ouzbékistan"",""hu"":""Üzbegisztán"",""ie"":""Úisbéiceastáin"",""ja"":""ウズベキスタン"",""nl"":""Oezbekistan"",""pt"":""Uzbequistão""}"
VU,-15.376706,166.959158,Vanuatu,,"{'ja': 'バヌアツ', 'ie': 'Vanuatú'}","{""ie"":""Vanuatú"",""ja"":""バヌアツ""}"
VA,41.902916,12.453389,Vatican City,,"{'fr': 'Cité du Vatican', 'hu': 'Vatikán', 'nl': 'Vaticaanstad', 'pl': 'Watykan', 'de': 'Vatikanstadt', 'ja': 'バチカン市国', 'co': 'Cità di u Vaticanu', 'es': 'Ciudad del Vaticano', 'pt': 'Vaticano', 'eu': 'Vatikano Hiria', 'ie': 'Cathair na Vatacáine'}","{""co"":""Cità di u Vaticanu"",""de"":""Vatikanstadt"",""es"":""Ciudad del Vaticano"",""eu"":""Vatikano Hiria"",""fr"":""Cité du Vatican"",""hu"":""Vatikán"",""ie"":""Cathair na Vatacáine"",""ja"":""バチカン市国"",""nl"":""Vaticaanstad"",""pl"":""Watykan"",""pt"":""Vaticano""}"
VE,6.42375,-66.58973,Venezuela,,"{'pl': 'Wenezuela', 'ja': 'ベネズエラ', 'ie': 'Veiniséala'}","{""ie"":""Veiniséala"",""ja"":""ベネズエラ"",""pl"":""Wenezuela""}"
VN,14.058324,108.277199,Vietnam,,"{'fr': 'Viêt Nam', 'hu': 'Vietnám', 'pl': 'Wietnam', 'ja': 'ベトナム', 'co': 'Vietnamu', 'pt': 'Vietname', 'ie': 'Vítneam'}","{""co"":""Vietnamu"",""fr"":""Viêt Nam"",""hu"":""Vietnám"",""ie"":""Vítneam"",""ja"":""ベトナム"",""pl"":""Wietnam"",""pt"":""Vietname""}"
WF,-13.768752,-177.156097,Wallis and Futuna,,"{'fr': 'Wallis-et-Futuna', 'hu': 'Wallis és Futuna Wallis és Futuna', 'nl': 'Wallis en Futuna', 'pl': 'Wallis i Futuna', 'de': 'Wallis und Futuna', 'ja': 'ウォリス・フツナ', 'co': 'Wallis è Futuna', 'es': 'Wallis y Futuna', 'pt': 'Wallis e Futuna', 'eu': 'Wallis eta Futuna', 'ie': 'Wallis agus Futuna'}","{""co"":""Wallis è Futuna"",""de"":""Wallis und Futuna"",""es"":""Wallis y Futuna"",""eu"":""Wallis eta Futuna"",""fr"":""Wallis-et-Futuna"",""hu"":""Wallis és Futuna Wallis és Futuna"",""ie"":""Wallis agus Futuna"",""ja"":""ウォリス・フツナ"",""nl"":""Wallis en Futuna"",""pl"":""Wallis i Futuna"",""pt"":""Wallis e Futuna""}"
EH,24.215527,-12.885834,Western Sahara,,"{'fr': 'Sahara occidental', 'hu': 'Nyugat-Szahara', 'nl': 'Westelijke Sahara', 'pl': 'Sahara Zachodnia', 'de': 'Westsahara', 'ja': '西サハラ', 'co': 'Sahara di u Rettu', 'es': 'República Árabe Saharaui Democrática', 'pt': 'Saara Ocidental', 'eu': 'Mendebaldeko Sahara', 'ie': 'An Sahára Thiar'}","{""co"":""Sahara di u Rettu"",""de"":""Westsahara"",""es"":""República Árabe Saharaui Democrática"",""eu"":""Mendebaldeko Sahara"",""fr"":""Sahara occidental"",""hu"":""Nyugat-Szahara"",""ie"":""An Sahára Thiar"",""ja"":""西サハラ"",""nl"":""Westelijke Sahara"",""pl"":""Sahara Zachodnia"",""pt"":""Saara Ocidental""}"
YE,15.552727,48.516388,Yemen,,"{'fr': 'Yémen', 'hu': 'Jemen', 'nl': 'Jemen', 'pl': 'Jemen', 'de': 'Jemen', 'ja': 'イエメン', 'pt': 'Iêmen', 'co': 'Yemenu', 'ie': 'Éimin'}","{""co"":""Yemenu"",""de"":""Jemen"",""fr"":""Yémen"",""hu"":""Jemen"",""ie"":""Éimin"",""ja"":""イエメン"",""nl"":""Jemen"",""pl"":""Jemen"",""pt"":""Iêmen""}"
ZM,-13.133897,27.849332,Zambia,,"{'fr': 'Zambie', 'de': 'Sambia', 'ja': 'ザンビア', 'pt': 'Zâmbia', 'ie': 'An tSaimbia'}","{""de"":""Sambia"",""fr"":""Zambie"",""ie"":""An tSaimbia"",""ja"":""ザンビア"",""pt"":""Zâmbia""}"
ZW,-19.015438,29.154857,Zimbabwe,,"{'de': 'Simbabwe', 'ja': 'ジンバブエ', 'es': 'Zimbabue', 'ie': 'An tSiombáib'}","{""de"":""Simbabwe"",""es"":""Zimbabue"",""ie"":""An tSiombáib"",""ja"":""ジンバブエ""}"
CW,12.169009225185517,-68.93593252202126,Curaçao,,"{'ja': 'キュラソー', 'es': 'Curazao', 'pt': 'CURAÇAU', 'co': 'Curaçau', 'ie': 'Curaçao'}","{""co"":""Curaçau"",""es"":""Curazao"",""ie"":""Curaçao"",""ja"":""キュラソー"",""pt"":""CURAÇAU""}"
BQ,12.158730898190548,-68.26160017264506,Caribbean Netherlands,,"{'fr': 'Pays-Bas caribéens', 'de': 'Karibische Niederlande', 'es': 'Caribe Neerlandés', 'ja': 'カリブ・オランダ', 'nl': 'Caribisch Nederland', 'pl': 'Karaiby Holenderskie', 'pt': 'Países Baixos Caribenhos', 'hu': 'KARIBI HOLLANDIA', 'co': 'Nazione Corsa Di Caribbi', 'eu': 'Karibe Holandarrek', 'ie': 'Bonaire, Sint Eustatius agus Saba'}","{""co"":""Nazione Corsa Di Caribbi"",""de"":""Karibische Niederlande"",""es"":""Caribe Neerlandés"",""eu"":""Karibe Holandarrek"",""fr"":""Pays-Bas caribéens"",""hu"":""KARIBI HOLLANDIA"",""ie"":""Bonaire, Sint Eustatius agus Saba"",""ja"":""カリブ・オランダ"",""nl"":""Caribisch Nederland"",""pl"":""Karaiby Holenderskie"",""pt"":""Países Baixos Caribenhos""}"
MH,9.82,169.29,Marshall Islands,,"{'eu': 'Marshall Uharteak', 'de': 'Marshallinseln', 'es': 'Islas Marshall', 'fr': 'Îles Marshall', 'ja': 'マーシャル諸島', 'nl': 'Marshalleilanden', 'pl': 'Wyspy Marshalla', 'pt': 'Ilhas Marshall', 'co': 'Isole Marshall', 'hu': 'MARSHALL-SZIGETEK', 'ie': 'Oileáin Marshall'}","{""co"":""Isole Marshall"",""de"":""Marshallinseln"",""es"":""Islas Marshall"",""eu"":""Marshall Uharteak"",""fr"":""Îles Marshall"",""hu"":""MARSHALL-SZIGETEK"",""ie"":""Oileáin Marshall"",""ja"":""マーシャル諸島"",""nl"":""Marshalleilanden"",""pl"":""Wyspy Marshalla"",""pt"":""Ilhas Marshall""}"
BL,17.9,-62.833333,Saint Barthélemy,,"{'de': 'Saint-Barthélemy', 'es': 'San Bartolomé', 'fr': 'Saint-Barthélemy', 'pl': 'Saint-Barthélemy', 'hu': 'SAINT-BARTHÉLEMY', 'pt': 'São Bartolomeu', 'nl': 'Saint-Barthélemy', 'ja': 'サン・バルテルミー', 'co': 'San Bartulimu', 'ie': 'Naomh Bartalamais'}","{""co"":""San Bartulimu"",""de"":""Saint-Barthélemy"",""es"":""San Bartolomé"",""fr"":""Saint-Barthélemy"",""hu"":""SAINT-BARTHÉLEMY"",""ie"":""Naomh Bartalamais"",""ja"":""サン・バルテルミー"",""nl"":""Saint-Barthélemy"",""pl"":""Saint-Barthélemy"",""pt"":""São Bartolomeu""}"
SX,18.0293645,-63.2235687,Sint Maarten,,"{'fr': 'Sint-Maarten', 'ja': 'シント・マールテン', 'nl': 'SINT-MAARTEN', 'pt': 'São Martinho (Países Baixos)', 'co': 'Santa Martinu', 'ie': 'Sint Maarten'}","{""co"":""Santa Martinu"",""fr"":""Sint-Maarten"",""ie"":""Sint Maarten"",""ja"":""シント・マールテン"",""nl"":""SINT-MAARTEN"",""pt"":""São Martinho (Países Baixos)""}"
MF,18.0910397,-63.3911226,Saint Martin,,"{'es': 'San Martín', 'de': 'SAINT-MARTIN', 'fr': 'Saint-Martin', 'pl': 'SAINT-MARTIN', 'hu': 'SAINT-MARTIN', 'pt': 'São Martinho (França)', 'nl': 'Sint-Maarten', 'ja': 'サン・マルタン', 'co': 'Santa Martinu', 'ie': 'Saint-Martin'}","{""co"":""Santa Martinu"",""de"":""SAINT-MARTIN"",""es"":""San Martín"",""fr"":""Saint-Martin"",""hu"":""SAINT-MARTIN"",""ie"":""Saint-Martin"",""ja"":""サン・マルタン"",""nl"":""Sint-Maarten"",""pl"":""SAINT-MARTIN"",""pt"":""São Martinho (França)""}"
AX,60.17454109711046,20.419275772342356,Åland,,"{'pl': 'Wyspy Alandzkie', 'pt': 'ALANDA', 'ja': 'オーランド', 'co': 'Ålanda', 'eu': 'Ålandak', 'ie': 'Oileáin Åland'}","{""co"":""Ålanda"",""eu"":""Ålandak"",""ie"":""Oileáin Åland"",""ja"":""オーランド"",""pl"":""Wyspy Alandzkie"",""pt"":""ALANDA""}"
